name,category,address,country,latitude,longitude
Randolph Pub Ludique,Amusement Park,2041 Saint-Denis Rue,CA,45.516495,-73.565819
Le 4e Mur,Music Venue,2021 Saint-Denis Rue,CA,45.516216,-73.565568
Patrick'S Pub Irlandais,Irish Pub,1707 Saint-Denis Rue,CA,45.515508,-73.564043
Le Cheval Blanc,Bar,809 Ontario Rue E,CA,45.51817,-73.564467
Bibliothèque et Archives nationales du Québec,Library,475 Blvd de Maisonneuve Est,CA,45.515487,-73.562251
Maison de Thé Camellia Sinensis,Café,351 Emery Rue,CA,45.514661,-73.563774
Vua Sandwichs,Sushi Restaurant,1579 Saint-Denis Rue,CA,45.514746,-73.562372
Saint-Houblon,Gastropub,1567 Saint-Denis Rue,CA,45.514696,-73.562032
Cineplex Cinemas,Movie Theater,350 Emery Rue,CA,45.514488,-73.563914
Le Mousso,Restaurant,1023 Ontario Rue E,CA,45.520127,-73.563173
Bagatelle Bistro,Bistro,4323 Ontario Rue E,CA,45.552875,-73.539781
Les gourmandises de Marie-Antoinette,Bakery,4317 Ontario Rue E,CA,45.552817,-73.539828
Le Bièrologue - le Vinologue,Beer Store,4301 Ontario Rue E,CA,45.552759,-73.539874
Hoche Café,Café,4299 Ontario Rue E,CA,45.55247,-73.540108
Fromagerie Marche Maisonneuve,Cheese Store,4445 Ontario Rue E,CA,45.554138,-73.539142
L'Olive Noire,Middle Eastern Restaurant,4271 Ontario Rue E,CA,45.552183,-73.540244
Hélicoptère,Gastropub,4255 Ontario Rue E,CA,45.552068,-73.540338
Maison de la culture Maisonneuve,Concert Hall,4200 Ontario Rue E,CA,45.551163,-73.540115
Mercier-Hochelaga-Maisonneuve,Library,4120 Ontario Rue E,CA,45.550641,-73.540632
Hoche Glacé,Café,2225 Bennett Ave,CA,45.556144,-73.541144
La Banquise,Diner,994 Rachel Rue E,CA,45.525348,-73.574677
Parc la Fontaine,Park,3933 rue du Parc-Lafontaine,CA,45.526246,-73.569666
Grillade Portuguaise ma Poule Mouillée,Bakery,969 Rachel Rue E,CA,45.525165,-73.575301
Boulangerie Pâtisserie Mr Pinchot,Bakery,4354 rue de Brébeuf,CA,45.52822,-73.57598
Café le Loup Bleu,Café,1279 Marie-Anne Rue E,CA,45.528686,-73.575413
Le Parloir,Tea Room,4354 Christophe Colomb Ave,CA,45.526887,-73.577245
Le Moineau Masqué,Café,912 Marie-Anne Rue E,CA,45.525508,-73.577976
Point G,Ice Cream Parlor,1266 Ave du Mont-Royal Est,CA,45.529435,-73.577666
Aux 33 Tours,Music Store,1373 Ave du Mont-Royal Est,CA,45.530643,-73.576978
Ô Breton,Creperie,1201 Ave Mont-Royal E,CA,45.529021,-73.578477
SAQ Express-Lajeunesse - Fleury,Liquor Store,10418 Lajeunesse Rue,CA,45.553888,-73.66456
Parc Ahuntsic,Park,10555 Lajeunesse Rue,CA,45.555192,-73.667417
La fromagerie Hamel,Cheese Store,975 Fleury Rue E,CA,45.557629,-73.659645
Rachelle-Bery Produits Naturels,Organic Grocery,905 Fleury Rue E,CA,45.557282,-73.659924
Uber Cafbar,Lounge,1011 Fleury Rue E,CA,45.557974,-73.659463
Cafe le Petit Flore Inc,Bistro,1145 Fleury Rue E,CA,45.558666,-73.659001
Iga Khetani,Grocery Store,905 Fleury Rue E,CA,45.557227,-73.659874
Restaurant la Molisana,Pizzeria,1014 Fleury Rue E,CA,45.557869,-73.659071
Citron que c'est bon,Farmers Market,61 Fleury Rue O,CA,45.547498,-73.6657
IGA Alimentation Beaubien et Fille Inc,Grocery Store,10760 Millen Ave,CA,45.556656,-73.668049
Cirque du Soleil - Siège Social International,Arts and Entertainment,8400 2e Ave,CA,45.56146,-73.615016
Parc Fréderic-Back,Park,N/A,CA,45.560541,-73.61547
Pho Ngon,Vietnamese Restaurant,3205 Cremazie Blvd E,CA,45.562234,-73.607816
Tim Hortons,"Cafe, Coffee, and Tea House",8115 Papineau Ave,CA,45.553589,-73.619071
SAQ Sélection-Papineau - Crémazie,Grocery Store,8405 Papineau Ave,CA,45.556054,-73.623565
Poissonnerie Méditerranée,Deli,7735 Saint-Michel Blvd,CA,45.562449,-73.605641
Marché Aux Puces St-Michel,Antique Store,7707 Shelley Ave,CA,45.56269,-73.60497
Harvey's,Restaurant,3201 Cremazie Blvd E,CA,45.561773,-73.608092
Subway,Deli,7900 St Michel Blvd,CA,45.562292,-73.607769
Boulangerie & Pâtisserie Tillemont Inc,Bakery,1812 Tillemont Rue,CA,45.552123,-73.615774
Joe Fresh,Clothing Store,2925 Rachel Rue E,CA,45.544519,-73.562446
SAQ Sélection-Ateliers Angus,Grocery Store,4125 Andre-Laurendeau Rue,CA,45.543427,-73.563042
Labarake,Gastropub,3165 Rachel Rue E,CA,45.544943,-73.561151
CECI Centre d'Étude et de Coopération Internationale,Non-Profit Organization,3000 Omer-Lavallee Rue,CA,45.545617,-73.56156
Bento Sushi,Restaurant,2925 Rachel Rue E,CA,45.544915,-73.562507
Hoogan et Beaufort,French Restaurant,4095 Molson Rue,CA,45.542278,-73.563684
Mamie Clafoutis,Bakery,4093 Molson Rue,CA,45.542052,-73.56358
Parc Lafond,Park,3536 Laurier Ave E,CA,45.552052,-73.563704
Odessa l'Entrepôt,Fish Market,4900 Molson Rue,CA,45.541963,-73.570799
Maneki Comptoir Asiat',Asian Restaurant,3121 Hochelaga Rue,CA,45.542177,-73.554617
Le Taz,Sports and Recreation,8931 Papineau Ave,CA,45.560985,-73.635124
Toiture Montréal Steve Kruega,Roofer,1777 Emile-Journault Ave,CA,45.559174,-73.634773
Stade de soccer de Montréal,Stadium,9235 Papineau Ave,CA,45.562607,-73.639155
Projet45,Skate Park,8931 Papineau Ave,CA,45.561746,-73.636799
Couche-Tard,Convenience Store,1420 Legendre Rue E,CA,45.558661,-73.637568
Proxim pharmacie affiliée - Ahrid et Moustapha,Drugstore,1420 Legendre Rue E,CA,45.558661,-73.637568
Parc Frédéric-Back – Complexe environnemental de Saint-Michel,Garden,2235 Michel-Jurdant Rue,CA,45.563672,-73.63439
Monsieur Baignoire,Home Improvement Service,9287 Vincent-Quiblier Ave,CA,45.560894,-73.639486
SAQ Sélection-Papineau - Crémazie,Grocery Store,8405 Papineau Ave,CA,45.556054,-73.623565
Auvents de Venise,Repair Service,8442 Alderic-Beaulac Pl,CA,45.555521,-73.627329
Pho Ngon,Vietnamese Restaurant,3205 Cremazie Blvd E,CA,45.562234,-73.607816
Cirque du Soleil - Siège Social International,Arts and Entertainment,8400 2e Ave,CA,45.56146,-73.615016
Poissonnerie Méditerranée,Deli,7735 Saint-Michel Blvd,CA,45.562449,-73.605641
Harvey's,Restaurant,3201 Cremazie Blvd E,CA,45.561773,-73.608092
Marché Aux Puces St-Michel,Antique Store,7707 Shelley Ave,CA,45.56269,-73.60497
Subway,Deli,7900 St Michel Blvd,CA,45.562292,-73.607769
Marché Kim Hour Inc,Cantonese Restaurant,7734 Saint-Michel Blvd,CA,45.561716,-73.605374
Restaurant Pho Nam Inc,Vietnamese Restaurant,3250 Cremazie Blvd E,CA,45.563075,-73.605613
Pharmaprix - Jarry,Drugstore,3325 Jarry St E,CA,45.565042,-73.60946
Nam Quan Restaurant,Vietnamese Restaurant,3562 Jarry Rue E,CA,45.566573,-73.606891
Gentile Bar,Italian Restaurant,9299 Ave du Parc,CA,45.538302,-73.654432
Winners,Department Store,815 Chabanel Rue O,CA,45.535975,-73.656971
Marshalls,Department Store,1001 Rue du Marché Central,CA,45.535493,-73.652883
Calvin Klein Outlet,Clothing Store,999 Rue Marché Céntral,CA,45.534048,-73.6533
Bulk Barn,Food and Beverage Retail,9193 Blvd de la Acadie,CA,45.533393,-73.655429
Restaurant Nostos Souvlaki,Fast Food Restaurant,9530 Blvd de l'Acadie,CA,45.534333,-73.661772
Mec,Retail,8989 Blvd de l'Acadie,CA,45.532277,-73.651757
Tzanet,Kitchen Remodeler,1375 rue de Louvain O,CA,45.533608,-73.661446
Patisseries Amal Bohsali,Bakery,1420 Sauve Rue W,CA,45.533765,-73.664747
Parc St-Benoît,Dog Park,9750 Meilleur Rue,CA,45.540481,-73.666963
Parc Ahuntsic,Park,10555 Lajeunesse Rue,CA,45.555192,-73.667417
La fromagerie Hamel,Cheese Store,975 Fleury Rue E,CA,45.557629,-73.659645
Cafe le Petit Flore Inc,Bistro,1145 Fleury Rue E,CA,45.558666,-73.659001
L'Estaminet,Restaurant,1340 Fleury Rue E,CA,45.560114,-73.657741
Pharmaprix,Drugstore,10305 St Laurent Blvd,CA,45.548933,-73.665022
Dagenais Martine,Psychologist,10353 Saint-Laurent Blvd,CA,45.548919,-73.6657
Copie Litho Pro,Print Store,9998 Lajeunesse Rue,CA,45.552116,-73.656936
Parc la Fontaine,Park,3933 rue du Parc-Lafontaine,CA,45.526246,-73.569666
Café le Loup Bleu,Café,1279 Marie-Anne Rue E,CA,45.528686,-73.575413
Boulangerie Pâtisserie Mr Pinchot,Bakery,4354 rue de Brébeuf,CA,45.52822,-73.57598
La Banquise,Diner,994 Rachel Rue E,CA,45.525348,-73.574677
Grillade Portuguaise ma Poule Mouillée,Bakery,969 Rachel Rue E,CA,45.525165,-73.575301
Le Parloir,Tea Room,4354 Christophe Colomb Ave,CA,45.526887,-73.577245
Aux 33 Tours,Music Store,1373 Ave du Mont-Royal Est,CA,45.530643,-73.576978
Point G,Ice Cream Parlor,1266 Ave du Mont-Royal Est,CA,45.529435,-73.577666
Parc à chiens du Parc la Fontaine,Dog Park,N/A,CA,45.52746,-73.565829
Le Moineau Masqué,Café,912 Marie-Anne Rue E,CA,45.525508,-73.577976
Jean-Talon Market,Farmers Market,7070 Henri Julien Ave,CA,45.536163,-73.61488
Fromagerie Hamel,Cheese Store,220 Jean-Talon Rue E,CA,45.536261,-73.616075
Le Petit Alep,Bistro,191 Jean-Talon Rue E,CA,45.536482,-73.616373
Le Marché des Saveurs du Québec,Gourmet Store,280 Pl du Marché-du-Nord,CA,45.53608,-73.61384
Milano Fruiterie,Fruit and Vegetable Store,6862 Saint-Laurent Blvd,CA,45.532826,-73.614557
Le Super Qualité,Indian Restaurant,1211 Belanger Rue,CA,45.541945,-73.60778
Marconi,Restaurant,45 Mozart Ave O,CA,45.532967,-73.615967
Cafe Italia,Café,6840 Saint-Laurent Blvd,CA,45.532772,-73.614409
Caffè San Simeon,Café,39 Dante Rue,CA,45.5333,-73.613603
Pasticceria Alati-Caserta,Bakery,277 Dante Rue,CA,45.535271,-73.611729
Brasserie Harricana,Bar,95 Jean-Talon Rue O,CA,45.533806,-73.619387
Café St-Henri HQ,Café,7335 Rue du Mile-End,CA,45.532364,-73.623119
Dépanneur le Pick Up,Diner,7032 Waverly Rue,CA,45.531795,-73.617672
Marconi,Restaurant,45 Mozart Ave O,CA,45.532967,-73.615967
Stade IGA,Stadium,285 Faillon Rue O,CA,45.533442,-73.625965
Milano Fruiterie,Fruit and Vegetable Store,6862 Saint-Laurent Blvd,CA,45.532826,-73.614557
Fromagerie Hamel,Cheese Store,220 Jean-Talon Rue E,CA,45.536261,-73.616075
Le Petit Alep,Bistro,191 Jean-Talon Rue E,CA,45.536482,-73.616373
Cafe Italia,Café,6840 Saint-Laurent Blvd,CA,45.532772,-73.614409
Jean-Talon Market,Farmers Market,7070 Henri Julien Ave,CA,45.536163,-73.61488
Ta pies et supérette,Bakery,4520 Ave du Parc,CA,45.516965,-73.590103
Hà,Vietnamese Restaurant,243 Ave Mont-Royal Ouest,CA,45.517788,-73.588773
Le Filet,French Restaurant,219 Ave du Mont-Royal Ouest,CA,45.517963,-73.588537
Beautys Luncheonette,Diner,93 Ave du Mont-Royal Ouest,CA,45.519121,-73.587508
Cocoa Locale,Bakery,4807 Ave du Parc,CA,45.51845,-73.592525
Parc Jeanne-Mance,Park,N/A,CA,45.516572,-73.584326
Buvette Chez Simone,Wine Bar,4869 Ave du Parc,CA,45.518826,-73.593555
Hof Kelsten,Bakery,4524 Saint-Laurent Blvd,CA,45.520322,-73.587111
Monument to Sir George-Étienne Cartier,Monument,N/A,CA,45.514397,-73.585128
Darling,Lounge,4328 Saint-Laurent Blvd,CA,45.518909,-73.583965
Café Lulu,Café,852 Sainte-Catherine Rue E,CA,45.515966,-73.558245
Bibliothèque et Archives nationales du Québec,Library,475 Blvd de Maisonneuve Est,CA,45.515487,-73.562251
Archambault,Music Store,500 Sainte-Catherine Rue E,CA,45.514695,-73.559271
Vua Sandwichs,Sushi Restaurant,1579 Saint-Denis Rue,CA,45.514746,-73.562372
Saint-Houblon,Gastropub,1567 Saint-Denis Rue,CA,45.514696,-73.562032
La graine brûlée,Café,921 Sainte-Catherine Rue E,CA,45.516769,-73.557883
Pourquoi Pas Espresso Bar,Café,1447 Atateken Rue,CA,45.517964,-73.557776
Maison de Thé Camellia Sinensis,Café,351 Emery Rue,CA,45.514661,-73.563774
Cinémathèque Québécoise,Movie Theater,335 Blvd de Maisonneuve Est Montréal,CA,45.514003,-73.562591
O'Thym,French Restaurant,1112 Blvd de Maisonneuve Est,CA,45.518359,-73.557934
Pharmaprix,Drugstore,7355 St-Michel Blvd,CA,45.559946,-73.600225
Bar Zoe Karaoke et Cocktails,Night Club,3296 Jean-Talon Rue E,CA,45.559605,-73.59745
Marché Aux Puces St-Michel,Antique Store,7707 Shelley Ave,CA,45.56269,-73.60497
Poissonnerie Méditerranée,Deli,7735 Saint-Michel Blvd,CA,45.562449,-73.605641
Marché Kim Hour Inc,Cantonese Restaurant,7734 Saint-Michel Blvd,CA,45.561716,-73.605374
Pho Ngon,Vietnamese Restaurant,3205 Cremazie Blvd E,CA,45.562234,-73.607816
Conca d'Oro,Bakery,2549 Jean-Talon Rue E,CA,45.554463,-73.6015
Restaurant Pho Nam Inc,Vietnamese Restaurant,3250 Cremazie Blvd E,CA,45.563075,-73.605613
Le Petit Coin Mexicain,Mexican Restaurant,2474 Jean-Talon Rue E,CA,45.553258,-73.602091
Jean Coutu,Drugstore,2980 Belanger Rue,CA,45.55492,-73.595891
Boulangerie & Pâtisserie Tillemont Inc,Bakery,1812 Tillemont Rue,CA,45.552123,-73.615774
Tim Hortons,"Cafe, Coffee, and Tea House",8115 Papineau Ave,CA,45.553589,-73.619071
La Belle Bleue,BBQ Joint,1865 Jean-Talon Rue E,CA,45.548501,-73.606783
Théâtre Aux Écuries,Movie Theater,7285 Chabot Rue,CA,45.550127,-73.607855
Aquarius Poissons Tropicaux,Pet Supplies Store,2347 Jean-Talon Rue E,CA,45.552435,-73.603422
Boulangerie & Charcuterie San Pietro,Bakery,1950 Jean-Talon Rue E,CA,45.549206,-73.605643
Thai Sep,Thai Restaurant,1900 Jean-Talon Rue E,CA,45.548626,-73.606206
Cirque du Soleil - Siège Social International,Arts and Entertainment,8400 2e Ave,CA,45.56146,-73.615016
Café Zezin,Bakery,2351 Jean-Talon Rue E,CA,45.552666,-73.603235
Le Petit Coin Mexicain,Mexican Restaurant,2474 Jean-Talon Rue E,CA,45.553258,-73.602091
Rôtisseries Benny & Au Coq,Fried Chicken Joint,3397 Saint-Zotique Rue E,CA,45.5575,-73.589235
Parc Etienne-Desmarteau,Park,N/A,CA,45.560565,-73.578279
Beaubien Deli,Restaurant,4023 Beaubien Rue E,CA,45.562001,-73.580362
Subway,Deli,3975 Beaubien Rue E,CA,45.561764,-73.580839
Parc Beaubien,Nail Salon,3226 Beaubien Rue E,CA,45.553564,-73.587169
Sandwicherie Sue,Caterer,2660 Beaubien Rue E,CA,45.551189,-73.58937
Subway,Deli,3246 Rosemont Blvd,CA,45.552963,-73.58041
Rénovation Crystal,General Contractor,6550 21e Ave,CA,45.562535,-73.582028
Tessier Breton Desjardins Dentistes,Dentist,4055 Beaubien Rue E,CA,45.562405,-73.580035
Restaurant Steve Anna,Grocery Store,3302 Belanger Rue,CA,45.557929,-73.593274
SAQ Sélection-Ateliers Angus,Grocery Store,4125 Andre-Laurendeau Rue,CA,45.543427,-73.563042
Joe Fresh,Clothing Store,2925 Rachel Rue E,CA,45.544519,-73.562446
Hoogan et Beaufort,French Restaurant,4095 Molson Rue,CA,45.542278,-73.563684
Labarake,Gastropub,3165 Rachel Rue E,CA,45.544943,-73.561151
Mamie Clafoutis,Bakery,4093 Molson Rue,CA,45.542052,-73.56358
Maneki Comptoir Asiat',Asian Restaurant,3121 Hochelaga Rue,CA,45.542177,-73.554617
Bento Sushi,Restaurant,2925 Rachel Rue E,CA,45.544915,-73.562507
CECI Centre d'Étude et de Coopération Internationale,Non-Profit Organization,3000 Omer-Lavallee Rue,CA,45.545617,-73.56156
Boulangerie Au Pain Dore Ltee,Bakery,3075 Rue de Rouen,CA,45.540006,-73.552367
Rôtisseries Benny & Au Coq,BBQ Joint,3050 Hochelaga Rue,CA,45.540696,-73.554764
L'Espace Public-Brasseurs de Quartier,Bar,3632 Ontario Rue E,CA,45.545508,-73.544398
La Boutique Arhoma,Bakery,15 Simon-Valois Pl,CA,45.547683,-73.543594
Atomic Cafe,Café,3606 Ontario Rue E,CA,45.545279,-73.544488
Boucherie Beau-Bien Inc,Butcher,3748 Ontario Rue E,CA,45.546717,-73.543612
Antidote Bouffe Végane,Coffee Shop,3459 Ontario Rue E,CA,45.543946,-73.545754
Poutine Centrale,Burger Joint,3971 Hochelaga Rue,CA,45.551436,-73.549141
Restaurant la Pataterie Inc,Fast Food Restaurant,3860 Ontario Rue E,CA,45.547753,-73.542966
Heirloom,Pizzeria,3991 Ontario Rue E,CA,45.549418,-73.542097
État-Major,Restaurant,4005 Ontario Rue E,CA,45.549476,-73.54205
Madame Smith,Lounge,4061 Ontario Rue E,CA,45.550052,-73.54168
Bibliothèque et Archives nationales du Québec,Library,475 Blvd de Maisonneuve Est,CA,45.515487,-73.562251
Maison de Thé Camellia Sinensis,Café,351 Emery Rue,CA,45.514661,-73.563774
Vua Sandwichs,Sushi Restaurant,1579 Saint-Denis Rue,CA,45.514746,-73.562372
Patrick'S Pub Irlandais,Irish Pub,1707 Saint-Denis Rue,CA,45.515508,-73.564043
Saint-Houblon,Gastropub,1567 Saint-Denis Rue,CA,45.514696,-73.562032
Le 4e Mur,Music Venue,2021 Saint-Denis Rue,CA,45.516216,-73.565568
Cineplex Cinemas,Movie Theater,350 Emery Rue,CA,45.514488,-73.563914
Randolph Pub Ludique,Amusement Park,2041 Saint-Denis Rue,CA,45.516495,-73.565819
Cinémathèque Québécoise,Movie Theater,335 Blvd de Maisonneuve Est Montréal,CA,45.514003,-73.562591
Archambault,Music Store,500 Sainte-Catherine Rue E,CA,45.514695,-73.559271
Le Butterblume,Café,5836 Saint-Laurent Blvd,CA,45.527497,-73.602946
Bibliothèque Marc-Favreau,Library,500 Rosemont Blvd,CA,45.531936,-73.597082
Drawn & Quarterly,Bookstore,211 Bernard Rue O,CA,45.524847,-73.6047
Café Olimpico,Café,124 Saint-Viateur Rue O,CA,45.52403,-73.600216
La Maison de Mademoiselle Dumpling,Cantonese Restaurant,6381 Saint-Hubert Rue,CA,45.536031,-73.602449
Vices & Versa Bistro du Terroir Inc,Beer Bar,6631 Saint-Laurent Blvd,CA,45.531316,-73.61063
St-Viateur Bagel,Bagel Shop,263 Saint- Viateur Rue O,CA,45.522745,-73.601918
Larry's,Restaurant,9 Fairmount Ave E,CA,45.524086,-73.594743
Isle de Garde,Bar,1039 Beaubien Rue E,CA,45.537689,-73.60197
Fairmount Bagel Bakery Inc,Bagel Shop,74 Fairmount Ave O,CA,45.522827,-73.595186
Parc Olympique,Swimming Pool,4141 Pierre-De Coubertin Ave,CA,45.559971,-73.551495
Société des amis du Biodôme de Montréal,Museum,4777 Pierre-De-Coubertin Ave,CA,45.559705,-73.550565
Space for Life Montreal Biodome,Museum,4777 PIERRE-de COUBERTIN Ave,CA,45.559654,-73.549719
Planétarium Rio Tinto Alcan,Museum,4801 Pierre-De Coubertin Ave,CA,45.560558,-73.550543
Cineplex Inc,Movie Theater,4825 Pierre de Coubertin Ave,CA,45.560677,-73.547492
Stade Saputo,Stadium,4750 Sherbrooke Rue E,CA,45.563076,-73.552514
Montreal Botanical Garden (Jardin Botanique de Montréal),Garden,4101 Sherbrooke Rue E,CA,45.560002,-73.563009
Centre Pierre Charbonneau,Recreation Center,3000 Viau Rue,CA,45.562274,-73.550016
Jardin de Chine,Garden,N/A,CA,45.559145,-73.558644
Aréna Maurice-Richard,Skating Rink,2800 Viau Rue,CA,45.562219,-73.547104
Parc de Lorimier,Park,1975 Laurier Ave E,CA,45.537019,-73.57917
Odessa l'Entrepôt,Fish Market,4900 Molson Rue,CA,45.541963,-73.570799
L'Entre-Pots,Café,1995 Masson Rue,CA,45.538881,-73.582623
Croissantcroissant,Bakery,2270 Ave du Mont Royal E,CA,45.5372,-73.570259
Boswell Brasserie Artisanale,Bar,2407 Ave du Mont-Royal Est,CA,45.538461,-73.569717
Kasa Sushi,Sushi Restaurant,2190 Ave du Mont Royal Est,CA,45.536216,-73.571148
Café des Bois,Café,2296 Ave du Mont Royal Est,CA,45.537316,-73.570165
Parc du Pélican,Park,H1Y MONTRéAL,CA,45.544054,-73.574161
La Distillerie No2,Cocktail Bar,2047 Ave du Mont-Royal Est,CA,45.535105,-73.572712
Les Co'Pains d'Abord,Bakery,1965 Ave du Mont-Royal Est,CA,45.534294,-73.573461
Café de' Mercanti - Old Montreal,Café,350 Notre-Dame Rue E,CA,45.509659,-73.552669
Pub BreWskey,Pub,380 Saint Paul Rue E,CA,45.509457,-73.551404
Place Vauquelin,Museum,N/A,CA,45.508602,-73.55438
Le Club Chasse et Pêche,French Restaurant,423 Saint-Claude Rue,CA,45.50887,-73.552354
La Maison Smith,Dessert Shop,23 Notre-Dame Rue,CA,45.510694,-73.5605
Place Jacques Cartier,Plaza,N/A,CA,45.507998,-73.553343
Café Lulu,Café,852 Sainte-Catherine Rue E,CA,45.515966,-73.558245
Archambault,Music Store,500 Sainte-Catherine Rue E,CA,45.514695,-73.559271
Stereo Night Club,Night Club,1003 Sainte Catherine Rue E,CA,45.516024,-73.558199
Quebec Fine Crafts Boutique (Boutique Métiers d'Arts),Retail,20 Saint-Paul Rue O,CA,45.505205,-73.553788
Parc des Faubourgs,Park,N/A,CA,45.527172,-73.557583
La Fabrique Arhoma,Bakery,1700 Ontario Rue E,CA,45.525605,-73.559229
Le Lion d'Or,Arts and Entertainment,1676 Ontario Rue E,CA,45.525372,-73.559512
Au Petit Extra,Bistro,1690 Ontario Rue E,CA,45.525485,-73.559516
Grenade - Resto-bar et terrasse,Asian Restaurant,1603 Ontario Rue E,CA,45.52496,-73.560226
Pharmaprix,Drugstore,1580 Ontario St E,CA,45.524567,-73.559971
Échappe-toi Montréal,Escape Room,2244 Lariviere Rue,CA,45.530525,-73.557544
Espace Libre,Music Venue,1945 Fullum Rue,CA,45.530303,-73.554484
Usine C,Concert Hall,1345 Lalonde Ave,CA,45.522224,-73.560624
Parc à chiens du Parc la Fontaine,Dog Park,N/A,CA,45.52746,-73.565829
La Mer,Fish Market,1840 Rene-Levesque Blvd E,CA,45.52172,-73.549029
Starbucks,Coffee Shop,1301 Sainte-Catherine Rue E,CA,45.519431,-73.555448
Renard,Cocktail Bar,1272 Sainte-Catherine Rue E,CA,45.519093,-73.555341
Bar l'aigle Noir,Night Club,1315 Sainte-Catherine Rue E,CA,45.519605,-73.555309
Bistro le Passe Compose,Bistro,1310 Blvd de Maisonneuve Est,CA,45.520035,-73.556485
Rachelle-Béry,Health Food Store,1150 Ste,CA,45.518157,-73.556668
Pourquoi Pas Espresso Bar,Café,1447 Atateken Rue,CA,45.517964,-73.557776
O'Thym,French Restaurant,1112 Blvd de Maisonneuve Est,CA,45.518359,-73.557934
La graine brûlée,Café,921 Sainte-Catherine Rue E,CA,45.516769,-73.557883
Usine C,Concert Hall,1345 Lalonde Ave,CA,45.522224,-73.560624
Toqué,French Restaurant,900 Jean-Paul-Riopelle Pl,CA,45.502899,-73.561076
Tiradito,Bar,1076 Rue de Bleury,CA,45.504444,-73.563353
Five Guys Burgers & Fries,Burger Joint,468 McGill Rue,CA,45.50061,-73.559115
Dandy,Restaurant,244 Saint-Jacques Rue,CA,45.503173,-73.55876
Nacarat,Cocktail Bar,900 René-Lévesque O,CA,45.500712,-73.568076
Il Focolaio Pizza Resto,Pizzeria,1223 rue du Square-Phillips,CA,45.504007,-73.568085
Marché Artisans,Restaurant,900 Rene-Levesque Blvd O,CA,45.500312,-73.568209
Tommy,Lounge,200 Notre-Dame Rue O,CA,45.503713,-73.557373
Mandy's,Salad Restaurant,425 Saint Nicolas Rue,CA,45.50232,-73.556021
Flyjin,Night Club,417 Saint-Pierre Rue,CA,45.501625,-73.556677
Soubois,Restaurant,1106 Blvd de Maisonneuve Ouest,CA,45.500634,-73.574708
Cafe Vasco Da Gama,Café,1472 Peel Rue,CA,45.500636,-73.574611
Deville Dinerbar,Diner,1425 Stanley Rue,CA,45.499792,-73.574245
Bar George,Hotel Bar,1440 Drummond Rue,CA,45.499081,-73.575675
Le Taj,Indian Restaurant,2077 Stanley Rue,CA,45.500936,-73.576655
Reuben's Deli,Deli,1116 Sainte-Catherine Rue O,CA,45.499704,-73.572983
Roots,Clothing Store,1025 Sainte-Catherine Rue O,CA,45.500329,-73.572955
Joe's Panini,Fast Food Restaurant,1404 Drummond Rue,CA,45.498702,-73.574743
Maison Boulud,French Restaurant,1228 Sherbrooke Rue O,CA,45.499998,-73.578077
La Maison Simons,Clothing Store,977 Sainte-Catherine Rue O,CA,45.501138,-73.572303
Nouilles de Lan Zhou,Chinese Restaurant,1006 Saint-Laurent Blvd,CA,45.507703,-73.559485
Terrasse Place d'Armes,Hotel Bar,701 Cote de la Pl d'Armes 8th Floor,CA,45.505472,-73.557477
Qing Hua Chinatown,Dumpling Restaurant,1019 St-Laurent Blvd,CA,45.508156,-73.559596
Paquebot Vieux-Mtl,Café,520 Saint-Laurent Blvd,CA,45.506234,-73.55629
La Capital Tacos,Taco Restaurant,1096 Saint-Laurent Blvd,CA,45.508465,-73.561156
Notre-Dame Basilica of Montréal (Basilique Notre-Dame de Montréal),Structure,110 Notre-Dame Rue O,CA,45.504425,-73.55595
Ming Tao Xuan,Tea Room,451 Saint-Sulpice Rue,CA,45.504824,-73.55581
Tommy,Lounge,200 Notre-Dame Rue O,CA,45.503713,-73.557373
Tiradito,Bar,1076 Rue de Bleury,CA,45.504444,-73.563353
Dandy,Restaurant,244 Saint-Jacques Rue,CA,45.503173,-73.55876
Benelux,Beer Bar,245 Sherbrooke Rue O,CA,45.509571,-73.571023
Papeterie Nota Bene,Stationery Store,3416 Ave du Parc,CA,45.50842,-73.571761
Salle Wilfrid Pelletier - Place des Arts,Concert Hall,175 Sainte-Catherine Rue O,CA,45.508461,-73.566967
La Maison Symphonique de Montréal,Concert Hall,1600 Saint-Urbain Rue,CA,45.509375,-73.566706
Café Osmo,Café,51 Sherbrooke Rue O,CA,45.511864,-73.57003
Place des Festivals,Park,N/A,CA,45.507086,-73.567505
Café Parvis,Café,433 Mayor Rue,CA,45.505742,-73.569351
Studio-Theatre de la Place des Arts,Performing Arts Venue,175 Sainte-Catherine Rue O,CA,45.508022,-73.566179
Eva B,Vintage and Thrift Store,2013 Saint Laurent Blvd,CA,45.511638,-73.567166
Lola Rosa Cafe,Vegan and Vegetarian Restaurant,545 Milton Rue,CA,45.507314,-73.575891
Noble Café,Café,430 Laurier Ave E,CA,45.527216,-73.588982
Fous Desserts,Bakery,809 Laurier Ave E,CA,45.529172,-73.587785
Fruiterie Muscat Inc,Fruit and Vegetable Store,5000 Saint-Denis Rue,CA,45.526263,-73.588321
Café Myriade - le Plateau,Coffee Shop,4627 Saint-Denis Rue,CA,45.52481,-73.584349
Le Toledo,Bakery,351 Ave du Mont-Royal E,CA,45.523577,-73.583534
Au Kouign-Amann,Bakery,322 Ave du Mont-Royal Est,CA,45.523125,-73.583423
Parc Sir-Wilfrid-Laurier,Park,N/A,CA,45.531911,-73.587195
Trip de Bouffe,Bakery,277 Ave du Mont-Royal Est,CA,45.522768,-73.584187
Valet d'Coeur Jeux,Toy Store,4408 Saint-Denis Rue,CA,45.523218,-73.581633
Le Quartier Général,French Restaurant,1251 Gilford Rue,CA,45.531062,-73.581498
Sandwiches Cao Lanh,Fast Food Restaurant,2651 Ontario Rue E,CA,45.534333,-73.551898
Patisserie Polonaise Wawel,Bakery,2543A Ontario Rue E,CA,45.532948,-73.55292
Restaurant Kiên-Giang Exp,Fast Food Restaurant,2669 Ontario Rue E,CA,45.534391,-73.551851
Subway,Deli,2544 Ontario Rue E,CA,45.532785,-73.552576
Espace Libre,Music Venue,1945 Fullum Rue,CA,45.530303,-73.554484
Échappe-toi Montréal,Escape Room,2244 Lariviere Rue,CA,45.530525,-73.557544
Boulangerie Au Pain Dore Ltee,Bakery,3075 Rue de Rouen,CA,45.540006,-73.552367
Parc des Faubourgs,Park,N/A,CA,45.527172,-73.557583
Dépanneur Peluso,Convenience Store,2500 Rachel Rue E,CA,45.536887,-73.56327
Pharmaprix,Drugstore,2759 Sherbrooke Rue E,CA,45.539046,-73.560479
Beautys Luncheonette,Diner,93 Ave du Mont-Royal Ouest,CA,45.519121,-73.587508
Hof Kelsten,Bakery,4524 Saint-Laurent Blvd,CA,45.520322,-73.587111
Le Filet,French Restaurant,219 Ave du Mont-Royal Ouest,CA,45.517963,-73.588537
Darling,Lounge,4328 Saint-Laurent Blvd,CA,45.518909,-73.583965
Hà,Vietnamese Restaurant,243 Ave Mont-Royal Ouest,CA,45.517788,-73.588773
Ta pies et supérette,Bakery,4520 Ave du Parc,CA,45.516965,-73.590103
Parc Jeanne-Mance,Park,N/A,CA,45.516572,-73.584326
Noren のれん,Japanese Restaurant,77 Rachel Rue O,CA,45.517058,-73.582791
Trip de Bouffe,Bakery,277 Ave du Mont-Royal Est,CA,45.522768,-73.584187
Cocoa Locale,Bakery,4807 Ave du Parc,CA,45.51845,-73.592525
Place du Canada,Plaza,1080 Rue de la Cathédrale,CA,45.498872,-73.56918
Windsor Station,Monument,1160 de la Gauchetière St W,CA,45.497129,-73.568301
Mary Queen of the World Cathedral (Cathédrale Marie-Reine-du-Monde),Church,1085 Rue de la Cathedrale,CA,45.499227,-73.568513
Bell Centre (Centre Bell),Concert Hall,1909 des Canadiens-De-Montreal Ave,CA,45.496067,-73.569315
Rosélys Restaurant,Restaurant,900 Rene-Levesque Blvd O,CA,45.500607,-73.567686
Provigo avenue des Canadiens de Montréal,Grocery Store,1275 Ave des Canadiens de Montréal,CA,45.496512,-73.570702
Square Dorchester,Park,2903 Peel Rue,CA,45.499349,-73.57089
Melk Bar a Café,Café,1206 Stanley Rue,CA,45.498417,-73.572022
Marché Artisans,Restaurant,900 Rene-Levesque Blvd O,CA,45.500312,-73.568209
Nacarat,Cocktail Bar,900 René-Lévesque O,CA,45.500712,-73.568076
Tango Social Club,Night Club,7755 Saint-Laurent Blvd,CA,45.537755,-73.626206
Brasserie Harricana,Bar,95 Jean-Talon Rue O,CA,45.533806,-73.619387
Mesón,Spanish Restaurant,345 Villeray Rue,CA,45.540079,-73.623762
Stade IGA,Stadium,285 Faillon Rue O,CA,45.533442,-73.625965
Parc Jarry,Park,285 Faillon Rue O,CA,45.535206,-73.628544
Le Marquis Sans Gluten,Bakery,367 Rue de Castelnau E,CA,45.538723,-73.617901
Café St-Henri HQ,Café,7335 Rue du Mile-End,CA,45.532364,-73.623119
Fromagerie Hamel,Cheese Store,220 Jean-Talon Rue E,CA,45.536261,-73.616075
Le Petit Alep,Bistro,191 Jean-Talon Rue E,CA,45.536482,-73.616373
Tapeo,Mediterranean Restaurant,511 Villeray Rue,CA,45.541636,-73.622699
Café St-Henri HQ,Café,7335 Rue du Mile-End,CA,45.532364,-73.623119
Stade IGA,Stadium,285 Faillon Rue O,CA,45.533442,-73.625965
Afroditi Bakery,Bakery,756 Saint-Roch Rue,CA,45.528302,-73.629914
Efes Patisseries,Bakery,689 Saint-Roch Rue,CA,45.52881,-73.630076
Dépanneur le Pick Up,Diner,7032 Waverly Rue,CA,45.531795,-73.617672
Brasserie Harricana,Bar,95 Jean-Talon Rue O,CA,45.533806,-73.619387
Denise,Vietnamese Restaurant,386 Beaumont Ave,CA,45.528717,-73.618152
Parc Jarry,Park,285 Faillon Rue O,CA,45.535206,-73.628544
Restaurant Bombay Mahal,South Indian Restaurant,1001 Jean-Talon Rue O,CA,45.524635,-73.625915
Dispatch Coffee,Café,267 Saint-Zotique Rue O,CA,45.528928,-73.616173
Renard,Cocktail Bar,1272 Sainte-Catherine Rue E,CA,45.519093,-73.555341
La Mie Matinale Inc,Bakery,1371 Sainte-Catherine Rue E,CA,45.5203,-73.554652
Starbucks,Coffee Shop,1301 Sainte-Catherine Rue E,CA,45.519431,-73.555448
Bar l'aigle Noir,Night Club,1315 Sainte-Catherine Rue E,CA,45.519605,-73.555309
Restaurant Mozza Pâtes et Passions Inc,Italian Restaurant,1326 Sainte-Catherine Rue E,CA,45.519555,-73.554968
Priape,Strip Club,1311 Sainte-Catherine Rue E,CA,45.519489,-73.555402
Rebel Brasserie Urbaine,Bar,1470 Sainte-Catherine Rue E,CA,45.520887,-73.553702
Rachelle-Béry,Health Food Store,1150 Ste,CA,45.518157,-73.556668
La Diperie,Ice Cream Parlor,1481 Sainte-Catherine Rue E,CA,45.520935,-73.55414
La Mer,Fish Market,1840 Rene-Levesque Blvd E,CA,45.52172,-73.549029
Poissonnerie Méditerranée,Deli,7735 Saint-Michel Blvd,CA,45.562449,-73.605641
Pho Ngon,Vietnamese Restaurant,3205 Cremazie Blvd E,CA,45.562234,-73.607816
Marché Aux Puces St-Michel,Antique Store,7707 Shelley Ave,CA,45.56269,-73.60497
Marché Kim Hour Inc,Cantonese Restaurant,7734 Saint-Michel Blvd,CA,45.561716,-73.605374
Pharmaprix,Drugstore,7355 St-Michel Blvd,CA,45.559946,-73.600225
Harvey's,Restaurant,3201 Cremazie Blvd E,CA,45.561773,-73.608092
Conca d'Oro,Bakery,2549 Jean-Talon Rue E,CA,45.554463,-73.6015
Subway,Deli,7900 St Michel Blvd,CA,45.562292,-73.607769
Restaurant Pho Nam Inc,Vietnamese Restaurant,3250 Cremazie Blvd E,CA,45.563075,-73.605613
Le Petit Coin Mexicain,Mexican Restaurant,2474 Jean-Talon Rue E,CA,45.553258,-73.602091
Le Petit Dep,Café,300 Rue de la Montagne,CA,45.492032,-73.561941
Microbrasserie 4 Origines,Brewery,1304 Saint Patrick Rue,CA,45.488253,-73.557852
La Bête à Pain,Bakery,195 Young Rue,CA,45.493236,-73.558591
Gracie Barra Montreal - Brazilian Jiu-Jitsu,Martial Arts Dojo,3975 Notre Dame St W,CA,45.493188,-73.558153
Brasseur de Montréal,Brewery,1485 Ottawa Rue,CA,45.489651,-73.564528
Must Société,Furniture and Home Store,186 Peel Rue,CA,45.493411,-73.558354
Zibo,Restaurant,100 Peel Rue,CA,45.492931,-73.556838
Pizzeria Moretti,Pizzeria,1059 Wellington Rue,CA,45.493485,-73.557533
Pharmaprix,Drugstore,1000 Wellington Rue,CA,45.493905,-73.556433
Mano Cornuto,"Cafe, Coffee, and Tea House",988 Ottawa Rue,CA,45.495001,-73.558404
September Surf Café,Café,2471 Notre-Dame Rue O,CA,45.483247,-73.575022
Joe Beef,Gastropub,2491 Notre Dame Rue O,CA,45.483072,-73.575259
Le Vin Papillon,Wine Bar,2519 Notre-Dame Rue O,CA,45.482892,-73.575689
Liverpool House,Restaurant,2501 Notre-Dame Rue O,CA,45.482896,-73.575495
Burgundy Lion,Bar,2496 Notre-Dame Rue O,CA,45.482675,-73.575198
Théâtre Corona,Music Venue,2490 Notre-Dame Rue O,CA,45.482908,-73.574915
Atwater Cocktail Club,Speakeasy,512 Atwater Ave,CA,45.481306,-73.5783
SAQ Sélection-Marché Atwater,Liquor Store,155 Atwater Ave,CA,45.480373,-73.576673
Satay Brothers,Asian Restaurant,138 Atwater Ave,CA,45.479959,-73.577482
Atwater Market,Farmers Market,138 Atwater Ave,CA,45.479821,-73.57747
Atwater Cocktail Club,Speakeasy,512 Atwater Ave,CA,45.481306,-73.5783
Eko Sushi,Sushi Restaurant,3502 Notre-Dame Rue O,CA,45.480201,-73.579571
A/Maze: Montreal Escape Game,Escape Room,3550 Saint-Jacques Rue,CA,45.481336,-73.582367
Green Spot,Diner,3041 Notre-Dame Rue O,CA,45.480897,-73.578819
Le Vin Papillon,Wine Bar,2519 Notre-Dame Rue O,CA,45.482892,-73.575689
Liverpool House,Restaurant,2501 Notre-Dame Rue O,CA,45.482896,-73.575495
Burgundy Lion,Bar,2496 Notre-Dame Rue O,CA,45.482675,-73.575198
Théâtre Corona,Music Venue,2490 Notre-Dame Rue O,CA,45.482908,-73.574915
Joe Beef,Gastropub,2491 Notre Dame Rue O,CA,45.483072,-73.575259
SAQ Sélection-Marché Atwater,Liquor Store,155 Atwater Ave,CA,45.480373,-73.576673
Fusion Express,Sushi Restaurant,3974 Pierre de Coubertin Ave,CA,45.55257,-73.552134
Le Musee Dufresne-Nincheri,Museum,2929 Jeanne-D'arc Ave,CA,45.553836,-73.553891
Poutine Centrale,Burger Joint,3971 Hochelaga Rue,CA,45.551436,-73.549141
Restaurant du Jardin Botanique,Restaurant,4101 Sherbrooke Rue E,CA,45.556047,-73.557237
Velo Montreal,Bicycle Store,3880 Rachel Rue E,CA,45.552316,-73.556246
Space for Life Montreal Biodome,Museum,4777 PIERRE-de COUBERTIN Ave,CA,45.559654,-73.549719
Société des amis du Biodôme de Montréal,Museum,4777 Pierre-De-Coubertin Ave,CA,45.559705,-73.550565
Parc Olympique,Swimming Pool,4141 Pierre-De Coubertin Ave,CA,45.559971,-73.551495
Tim Hortons,"Cafe, Coffee, and Tea House",3881 Sherbrooke Rue E,CA,45.552111,-73.555173
Planétarium Rio Tinto Alcan,Museum,4801 Pierre-De Coubertin Ave,CA,45.560558,-73.550543
La Banquise,Diner,994 Rachel Rue E,CA,45.525348,-73.574677
Grillade Portuguaise ma Poule Mouillée,Bakery,969 Rachel Rue E,CA,45.525165,-73.575301
Le Parloir,Tea Room,4354 Christophe Colomb Ave,CA,45.526887,-73.577245
Le Moineau Masqué,Café,912 Marie-Anne Rue E,CA,45.525508,-73.577976
Boulangerie Pâtisserie Mr Pinchot,Bakery,4354 rue de Brébeuf,CA,45.52822,-73.57598
Les Chocolats de Chloé,Candy Store,546 Duluth Ave E,CA,45.52223,-73.574334
Au Pied de Cochon,French Restaurant,536 Duluth Ave E,CA,45.522115,-73.574428
Parc la Fontaine,Park,3933 rue du Parc-Lafontaine,CA,45.526246,-73.569666
Café le Loup Bleu,Café,1279 Marie-Anne Rue E,CA,45.528686,-73.575413
Boulangerie les Co'Pains d'Abord,Bakery,418 Rachel Rue E,CA,45.521932,-73.577813
Fromagerie Marche Maisonneuve,Cheese Store,4445 Ontario Rue E,CA,45.554138,-73.539142
Bagatelle Bistro,Bistro,4323 Ontario Rue E,CA,45.552875,-73.539781
Les gourmandises de Marie-Antoinette,Bakery,4317 Ontario Rue E,CA,45.552817,-73.539828
Le Bièrologue - le Vinologue,Beer Store,4301 Ontario Rue E,CA,45.552759,-73.539874
Hoche Café,Café,4299 Ontario Rue E,CA,45.55247,-73.540108
L'Olive Noire,Middle Eastern Restaurant,4271 Ontario Rue E,CA,45.552183,-73.540244
Hélicoptère,Gastropub,4255 Ontario Rue E,CA,45.552068,-73.540338
Les Affamés,Bistro,4137 Sainte-Catherine Rue E,CA,45.548869,-73.535487
Maison de la culture Maisonneuve,Concert Hall,4200 Ontario Rue E,CA,45.551163,-73.540115
Entrepôt Public Montreal,Storage Facility,400 de la Salle Ave,CA,45.548775,-73.531655
Café Névé,Café,151 Rachel Rue E,CA,45.519548,-73.580498
Yokato Yokabai,Deli,4185 Drolet Rue,CA,45.521237,-73.578469
Église Saint-Jean-Baptiste,Church,309 Rachel Rue E,CA,45.521329,-73.579538
Le Majestique,Restaurant,4105 Saint-Laurent Blvd,CA,45.517562,-73.580385
Zone,Housewares Store,4246 Saint-Denis Rue,CA,45.522022,-73.578979
Diese Onze,Jazz and Blues Venue,4115A Saint-Denis Rue,CA,45.52144,-73.576877
Boulangerie les Co'Pains d'Abord,Bakery,418 Rachel Rue E,CA,45.521932,-73.577813
Darling,Lounge,4328 Saint-Laurent Blvd,CA,45.518909,-73.583965
Réservoir,Bar,9 Duluth Ave E,CA,45.517243,-73.579309
Bar Suzanne,Cocktail Bar,20 Duluth Ave E,CA,45.517251,-73.578922
September Surf Café,Café,2471 Notre-Dame Rue O,CA,45.483247,-73.575022
Joe Beef,Gastropub,2491 Notre Dame Rue O,CA,45.483072,-73.575259
Liverpool House,Restaurant,2501 Notre-Dame Rue O,CA,45.482896,-73.575495
Théâtre Corona,Music Venue,2490 Notre-Dame Rue O,CA,45.482908,-73.574915
Burgundy Lion,Bar,2496 Notre-Dame Rue O,CA,45.482675,-73.575198
Le Vin Papillon,Wine Bar,2519 Notre-Dame Rue O,CA,45.482892,-73.575689
Atwater Cocktail Club,Speakeasy,512 Atwater Ave,CA,45.481306,-73.5783
SAQ Sélection-Marché Atwater,Liquor Store,155 Atwater Ave,CA,45.480373,-73.576673
Satay Brothers,Asian Restaurant,138 Atwater Ave,CA,45.479959,-73.577482
Atwater Market,Farmers Market,138 Atwater Ave,CA,45.479821,-73.57747
Restaurant Bombay Mahal,South Indian Restaurant,1001 Jean-Talon Rue O,CA,45.524635,-73.625915
Dees Beauty Parlor,Hair Salon,1014A Jean Talon Rue O,CA,45.524416,-73.62552
Indian Curry House,North Indian Restaurant,996 Jean-Talon Rue O,CA,45.524818,-73.625291
Sushi Plus,Sushi Restaurant,1248 Beaumont Ave,CA,45.521549,-73.62402
Imagix - Radiologie Laënnec,Health and Medicine,1100 Beaumont Ave,CA,45.522938,-73.622807
Parc Canin de l'arrondissement d'Outremont,Dog Park,N/A,CA,45.519492,-73.621869
Dagwoods la Sandwicherie,Sandwich Spot,246 Graham Blvd,CA,45.520682,-73.62748
DrDaniel Peters,Dentist,1240 Beaumont Ave,CA,45.521884,-73.624322
Jean Coutu,Drugstore,1365 Beaumont Ave,CA,45.520646,-73.626461
Denise,Vietnamese Restaurant,386 Beaumont Ave,CA,45.528717,-73.618152
Van Houtte,Coffee Shop,545 Cremazie Blvd E,CA,45.546247,-73.638704
Auberge du Dragon Rouge,Restaurant,8870 Lajeunesse Rue,CA,45.547214,-73.641354
Veux-tu une Bière,Beer Store,372 rue de Liège E,CA,45.544149,-73.635725
L'Oeufrier,Restaurant,350 Rue de Liege Est,CA,45.543755,-73.635566
Patate Rouge,Fast Food Restaurant,755 Cremazie Blvd E,CA,45.548912,-73.636272
Starbucks,Coffee Shop,190 Cremazie Blvd E,CA,45.542976,-73.640194
Café in,Café,8500 Saint-Denis Rue,CA,45.544321,-73.635682
Tim Hortons,"Cafe, Coffee, and Tea House",790 Cremazie Blvd E,CA,45.54861,-73.63442
Pascal le Boucher,Butcher,8113 Saint-Denis Rue,CA,45.542802,-73.629476
Paylan Yetvart Pharmaciens,Drugstore,8967 Lajeunesse Rue,CA,45.547663,-73.64166
Restaurant Tandem,French Restaurant,586 Villeray Rue,CA,45.542389,-73.621997
Tapeo,Mediterranean Restaurant,511 Villeray Rue,CA,45.541636,-73.622699
Café Perko,Café,753 Villeray Rue,CA,45.543934,-73.621515
Mesón,Spanish Restaurant,345 Villeray Rue,CA,45.540079,-73.623762
Le Toasteur Villeray,Restaurant,767 Villeray Rue,CA,45.544167,-73.621232
Etoh Brasserie,Bar,8100 Saint-Denis Rue,CA,45.542519,-73.629418
Le Marquis Sans Gluten,Bakery,367 Rue de Castelnau E,CA,45.538723,-73.617901
Marche Meli Melo,Grocery Store,640 Jarry Rue E,CA,45.54466,-73.627598
Baristello & Co,Café,709B Jarry Rue E,CA,45.54563,-73.627388
Mr. Azteca,Mexican Restaurant,7349 Saint-Hubert Rue,CA,45.541954,-73.615584
Boulangerie les Co'Pains d'Abord,Bakery,418 Rachel Rue E,CA,45.521932,-73.577813
Diese Onze,Jazz and Blues Venue,4115A Saint-Denis Rue,CA,45.52144,-73.576877
Zone,Housewares Store,4246 Saint-Denis Rue,CA,45.522022,-73.578979
Yokato Yokabai,Deli,4185 Drolet Rue,CA,45.521237,-73.578469
Les Chocolats de Chloé,Candy Store,546 Duluth Ave E,CA,45.52223,-73.574334
Au Pied de Cochon,French Restaurant,536 Duluth Ave E,CA,45.522115,-73.574428
Église Saint-Jean-Baptiste,Church,309 Rachel Rue E,CA,45.521329,-73.579538
Grillade Portuguaise ma Poule Mouillée,Bakery,969 Rachel Rue E,CA,45.525165,-73.575301
Renaud-Bray,Bookstore,4380 Saint-Denis Rue,CA,45.523001,-73.581142
Le Moineau Masqué,Café,912 Marie-Anne Rue E,CA,45.525508,-73.577976
Martini Pizzeria,Pizzeria,9481 Lajeunesse Rue,CA,45.550367,-73.650914
Jean Coutu,Drugstore,9465 Lajeunesse Rue,CA,45.550208,-73.650375
Restaurant Georgina,Burger Joint,9245 Lajeunesse Rue,CA,45.549075,-73.647477
Subway,Deli,9720 St Laurent Blvd,CA,45.546016,-73.657845
Vêtements Unique Inc,Clothing Store,9455 Saint-Laurent Blvd,CA,45.545205,-73.653163
La fromagerie Hamel,Cheese Store,975 Fleury Rue E,CA,45.557629,-73.659645
Citron que c'est bon,Farmers Market,61 Fleury Rue O,CA,45.547498,-73.6657
132 Bar Vintage,Cocktail Bar,132 Fleury Rue O,CA,45.546528,-73.665909
Couche-Tard,Convenience Store,800 Sauve Rue E,CA,45.554579,-73.653335
Parc Ahuntsic,Park,10555 Lajeunesse Rue,CA,45.555192,-73.667417
Gentile Bar,Italian Restaurant,9299 Ave du Parc,CA,45.538302,-73.654432
Winners,Department Store,815 Chabanel Rue O,CA,45.535975,-73.656971
Marshalls,Department Store,1001 Rue du Marché Central,CA,45.535493,-73.652883
Calvin Klein Outlet,Clothing Store,999 Rue Marché Céntral,CA,45.534048,-73.6533
Bulk Barn,Food and Beverage Retail,9193 Blvd de la Acadie,CA,45.533393,-73.655429
Mec,Retail,8989 Blvd de l'Acadie,CA,45.532277,-73.651757
Restaurant Nostos Souvlaki,Fast Food Restaurant,9530 Blvd de l'Acadie,CA,45.534333,-73.661772
Tzanet,Kitchen Remodeler,1375 rue de Louvain O,CA,45.533608,-73.661446
Inolec Inc,Industrial Equipment Supplier,100 rue de Port-Royal E,CA,45.54782,-73.655821
Le Brûloir,Café,343 Fleury Rue O,CA,45.543583,-73.668087
Les Cavistes,Wine Bar,196 Fleury Rue O,CA,45.54578,-73.66632
132 Bar Vintage,Cocktail Bar,132 Fleury Rue O,CA,45.546528,-73.665909
La Bête à Pain,Bakery,114 Fleury Rue O,CA,45.546759,-73.665723
Restaurant le St-Urbain,French Restaurant,96 Fleury Rue O,CA,45.547046,-73.665588
Citron que c'est bon,Farmers Market,61 Fleury Rue O,CA,45.547498,-73.6657
Boucherie Ça Va Barder,Butcher,55 Fleury Rue O,CA,45.547554,-73.66575
Restaurant l'Oeuforie Matinale,Restaurant,340 Henri-Bourassa Blvd O,CA,45.544751,-73.674672
SAQ Sélection-Henri-Bourassa Ouest - Tanguay,Liquor Store,450 Henri-Bourassa Blvd O,CA,45.544189,-73.674361
Dépanneur Petit-Mi Inc,Convenience Store,719 Fleury Rue O,CA,45.540126,-73.670296
Mamie Clafoutis,Bakery,3660 Saint-Denis Rue,CA,45.518104,-73.57052
Square Saint-Louis,Urban Park,St Denis St,CA,45.516863,-73.570018
Randolph Pub Ludique,Amusement Park,2041 Saint-Denis Rue,CA,45.516495,-73.565819
Le 4e Mur,Music Venue,2021 Saint-Denis Rue,CA,45.516216,-73.565568
Le Club Espresso Bar,Café,3801 Saint-Denis Rue,CA,45.519481,-73.572648
Le Cheval Blanc,Bar,809 Ontario Rue E,CA,45.51817,-73.564467
Le Mousso,Restaurant,1023 Ontario Rue E,CA,45.520127,-73.563173
Bistro Tôt ou Tard,Bistro,1030 Cherrier Rue,CA,45.521593,-73.566562
Patrick'S Pub Irlandais,Irish Pub,1707 Saint-Denis Rue,CA,45.515508,-73.564043
Maison de Thé Camellia Sinensis,Café,351 Emery Rue,CA,45.514661,-73.563774
Satay Brothers,Asian Restaurant,138 Atwater Ave,CA,45.479959,-73.577482
Atwater Market,Farmers Market,138 Atwater Ave,CA,45.479821,-73.57747
SAQ Sélection-Marché Atwater,Liquor Store,155 Atwater Ave,CA,45.480373,-73.576673
Atwater Cocktail Club,Speakeasy,512 Atwater Ave,CA,45.481306,-73.5783
Première Moisson,Bakery,3025 Saint-Ambroise Rue,CA,45.479133,-73.576246
Eko Sushi,Sushi Restaurant,3502 Notre-Dame Rue O,CA,45.480201,-73.579571
Green Spot,Diner,3041 Notre-Dame Rue O,CA,45.480897,-73.578819
Canal de Lachine (Canal-de-Lachine),Canal,361 Bridge St,CA,45.478826,-73.57459
Saint-Henri micro-torréfacteur,Café,3632 Notre-Dame Rue O,CA,45.479374,-73.581093
L'Avenue,Dining and Drinking,3612 Notre-Dame Rue O,CA,45.479552,-73.58076
Bouillon Bilk,Restaurant,1595 Saint-Laurent Blvd,CA,45.511038,-73.565936
Cadet,Restaurant,1431 Saint-Laurent Blvd,CA,45.510388,-73.564365
La Maison Symphonique de Montréal,Concert Hall,1600 Saint-Urbain Rue,CA,45.509375,-73.566706
Le Central,Dining and Drinking,30 Sainte-Catherine Rue O,CA,45.509663,-73.563712
Eva B,Vintage and Thrift Store,2013 Saint Laurent Blvd,CA,45.511638,-73.567166
Monument-National,Music Venue,1182 Saint-Laurent Blvd,CA,45.509065,-73.562386
Salle Wilfrid Pelletier - Place des Arts,Concert Hall,175 Sainte-Catherine Rue O,CA,45.508461,-73.566967
Studio-Theatre de la Place des Arts,Performing Arts Venue,175 Sainte-Catherine Rue O,CA,45.508022,-73.566179
Chocolats Favoris,Ice Cream Parlor,150 Sainte-Catherine Rue O,CA,45.507869,-73.56535
La Maison Smith,Dessert Shop,23 Notre-Dame Rue,CA,45.510694,-73.5605
Space for Life Montreal Biodome,Museum,4777 PIERRE-de COUBERTIN Ave,CA,45.559654,-73.549719
Parc Olympique,Swimming Pool,4141 Pierre-De Coubertin Ave,CA,45.559971,-73.551495
Société des amis du Biodôme de Montréal,Museum,4777 Pierre-De-Coubertin Ave,CA,45.559705,-73.550565
Planétarium Rio Tinto Alcan,Museum,4801 Pierre-De Coubertin Ave,CA,45.560558,-73.550543
Cineplex Inc,Movie Theater,4825 Pierre de Coubertin Ave,CA,45.560677,-73.547492
Aréna Maurice-Richard,Skating Rink,2800 Viau Rue,CA,45.562219,-73.547104
Stade Saputo,Stadium,4750 Sherbrooke Rue E,CA,45.563076,-73.552514
Centre Pierre Charbonneau,Recreation Center,3000 Viau Rue,CA,45.562274,-73.550016
Hoche Glacé,Café,2225 Bennett Ave,CA,45.556144,-73.541144
Jardin de Chine,Garden,N/A,CA,45.559145,-73.558644
Café de' Mercanti - Old Montreal,Café,350 Notre-Dame Rue E,CA,45.509659,-73.552669
Pub BreWskey,Pub,380 Saint Paul Rue E,CA,45.509457,-73.551404
Le Club Chasse et Pêche,French Restaurant,423 Saint-Claude Rue,CA,45.50887,-73.552354
Grande Roue de Montréal,Amusement Park,N/A,CA,45.508711,-73.548959
Patinoire des Quais,Skating Rink,N/A,CA,45.5084,-73.547496
Place Jacques Cartier,Plaza,N/A,CA,45.507998,-73.553343
Place Vauquelin,Museum,N/A,CA,45.508602,-73.55438
Quebec Fine Crafts Boutique (Boutique Métiers d'Arts),Retail,20 Saint-Paul Rue O,CA,45.505205,-73.553788
Café Lulu,Café,852 Sainte-Catherine Rue E,CA,45.515966,-73.558245
Café Olimpico,Café,419 Saint-Vincent Rue,CA,45.507261,-73.553272
Noble Café,Café,430 Laurier Ave E,CA,45.527216,-73.588982
Fruiterie Muscat Inc,Fruit and Vegetable Store,5000 Saint-Denis Rue,CA,45.526263,-73.588321
Fous Desserts,Bakery,809 Laurier Ave E,CA,45.529172,-73.587785
Café Myriade - le Plateau,Coffee Shop,4627 Saint-Denis Rue,CA,45.52481,-73.584349
Parc Lahaie,Park,Blvd St,CA,45.522896,-73.591797
VdeV,Housewares Store,5042 Saint-Laurent Blvd,CA,45.522659,-73.592274
Larry's,Restaurant,9 Fairmount Ave E,CA,45.524086,-73.594743
Pizzeria Magpie,Pizzeria,16 Maguire Rue,CA,45.524638,-73.595536
Parc Sir-Wilfrid-Laurier,Park,N/A,CA,45.531911,-73.587195
Brasserie Dieu du Ciel,Beer Bar,29 Laurier Ave O,CA,45.522693,-73.593389
Patisserie Polonaise Wawel,Bakery,2543A Ontario Rue E,CA,45.532948,-73.55292
Sandwiches Cao Lanh,Fast Food Restaurant,2651 Ontario Rue E,CA,45.534333,-73.551898
Espace Libre,Music Venue,1945 Fullum Rue,CA,45.530303,-73.554484
Restaurant Kiên-Giang Exp,Fast Food Restaurant,2669 Ontario Rue E,CA,45.534391,-73.551851
La Cordée Plein-Air,Bicycle Store,2159 Sainte-Catherine Rue E,CA,45.525796,-73.549739
Goliath,Amusement Park,N/A,CA,45.5263,-73.535995
SAQ,Liquor Store,905 Ave de Lorimier,CA,45.523867,-73.54682
Subway,Deli,2544 Ontario Rue E,CA,45.532785,-73.552576
Échappe-toi Montréal,Escape Room,2244 Lariviere Rue,CA,45.530525,-73.557544
La Mer,Fish Market,1840 Rene-Levesque Blvd E,CA,45.52172,-73.549029
La Belle Bleue,BBQ Joint,1865 Jean-Talon Rue E,CA,45.548501,-73.606783
Théâtre Aux Écuries,Movie Theater,7285 Chabot Rue,CA,45.550127,-73.607855
Bibliothèque le Prévost,Library,7355 Christophe-Colomb Ave,CA,45.544018,-73.614683
Patro le Prevost,Recreation Center,7355 Christophe-Colomb Ave,CA,45.54408,-73.614443
Sushi Löbu,Sushi Restaurant,1813 Jean-Talon Rue E,CA,45.548154,-73.607063
Soucoupe café,Café,6910 Fabre Rue,CA,45.544852,-73.60458
Thai Sep,Thai Restaurant,1900 Jean-Talon Rue E,CA,45.548626,-73.606206
Mr. Azteca,Mexican Restaurant,7349 Saint-Hubert Rue,CA,45.541954,-73.615584
Boulangerie & Charcuterie San Pietro,Bakery,1950 Jean-Talon Rue E,CA,45.549206,-73.605643
Luciano Trattoria,Italian Restaurant,1212 Saint-Zotique Rue E,CA,45.540263,-73.603896
La Maison Simons,Clothing Store,977 Sainte-Catherine Rue O,CA,45.501138,-73.572303
Indigo,Bookstore,1500 McGill College Ave,CA,45.501946,-73.571651
Café Humble Lion,Café,904 Sherbrooke Rue O,CA,45.503303,-73.574745
Cineplex Inc,Movie Theater,977 Sainte-Catherine Rue O,CA,45.501026,-73.572202
Soubois,Restaurant,1106 Blvd de Maisonneuve Ouest,CA,45.500634,-73.574708
Roots,Clothing Store,1025 Sainte-Catherine Rue O,CA,45.500329,-73.572955
Sephora,Cosmetics Store,677 Sainte Catherine Rue O,CA,45.50288,-73.570422
Cafe Vasco Da Gama,Café,1472 Peel Rue,CA,45.500636,-73.574611
McGill University Party Network,Arts and Entertainment,845 Sherbrooke Rue O,CA,45.503987,-73.57467
Café Olimpico,Café,1333 Robert-Bourassa Blvd,CA,45.503836,-73.570888
Le Butterblume,Café,5836 Saint-Laurent Blvd,CA,45.527497,-73.602946
Pastel Rita,Café,5761 Saint-Laurent Blvd,CA,45.527242,-73.601532
Drawn & Quarterly,Bookstore,211 Bernard Rue O,CA,45.524847,-73.6047
La Lumiere du Mile End,Café,214 Bernard Rue O,CA,45.524566,-73.604546
La Guilde Culinaire,Culinary School,6381 Saint-Laurent Blvd,CA,45.530071,-73.607633
Café Olimpico,Café,124 Saint-Viateur Rue O,CA,45.52403,-73.600216
Boulangerie Cheskie Inc,Bakery,359 Bernard Rue O,CA,45.523458,-73.605914
Restaurant Gus,French Restaurant,38 Beaubien Rue E,CA,45.530691,-73.607896
Le Vieux Velo,Breakfast Spot,59 Beaubien Rue E,CA,45.531087,-73.607957
Moustache Café,Coffee Shop,35 Beaubien Rue E,CA,45.530798,-73.60819
Le Musee Dufresne-Nincheri,Museum,2929 Jeanne-D'arc Ave,CA,45.553836,-73.553891
Fusion Express,Sushi Restaurant,3974 Pierre de Coubertin Ave,CA,45.55257,-73.552134
Velo Montreal,Bicycle Store,3880 Rachel Rue E,CA,45.552316,-73.556246
Restaurant du Jardin Botanique,Restaurant,4101 Sherbrooke Rue E,CA,45.556047,-73.557237
Montreal Botanical Garden (Jardin Botanique de Montréal),Garden,4101 Sherbrooke Rue E,CA,45.560002,-73.563009
Tim Hortons,"Cafe, Coffee, and Tea House",3881 Sherbrooke Rue E,CA,45.552111,-73.555173
Poutine Centrale,Burger Joint,3971 Hochelaga Rue,CA,45.551436,-73.549141
Jardin alpin,Landmarks and Outdoors,N/A,CA,45.558384,-73.559736
Jardin de Chine,Garden,N/A,CA,45.559145,-73.558644
Parc Lafond,Park,3536 Laurier Ave E,CA,45.552052,-73.563704
Nacarat,Cocktail Bar,900 René-Lévesque O,CA,45.500712,-73.568076
Il Focolaio Pizza Resto,Pizzeria,1223 rue du Square-Phillips,CA,45.504007,-73.568085
Sephora,Cosmetics Store,677 Sainte Catherine Rue O,CA,45.50288,-73.570422
Marché Artisans,Restaurant,900 Rene-Levesque Blvd O,CA,45.500312,-73.568209
Indigo,Bookstore,1500 McGill College Ave,CA,45.501946,-73.571651
Café Olimpico,Café,1333 Robert-Bourassa Blvd,CA,45.503836,-73.570888
Rosélys Restaurant,Restaurant,900 Rene-Levesque Blvd O,CA,45.500607,-73.567686
Mary Queen of the World Cathedral (Cathédrale Marie-Reine-du-Monde),Church,1085 Rue de la Cathedrale,CA,45.499227,-73.568513
Cineplex Inc,Movie Theater,977 Sainte-Catherine Rue O,CA,45.501026,-73.572202
La Maison Simons,Clothing Store,977 Sainte-Catherine Rue O,CA,45.501138,-73.572303
Vélo Espresso,Bicycle Store,4551 Sainte-Catherine Rue E,CA,45.553303,-73.532571
Rona,Hardware Store,4690 Sainte-Catherine Rue E,CA,45.554119,-73.53153
Jean Coutu,Drugstore,4484 Sainte-Catherine Rue E,CA,45.552562,-73.532693
Théâtre Denise-Pelletier,Theater,4353 Sainte-Catherine Rue E,CA,45.551506,-73.534309
Bistro le Ste-Cath,Bistro,4264 Sainte-Catherine Rue E,CA,45.550143,-73.534266
Les Affamés,Bistro,4137 Sainte-Catherine Rue E,CA,45.548869,-73.535487
Restaurant Cabotins,French Restaurant,4821 Sainte-Catherine Rue E,CA,45.556066,-73.530815
Bagatelle Bistro,Bistro,4323 Ontario Rue E,CA,45.552875,-73.539781
Fromagerie Marche Maisonneuve,Cheese Store,4445 Ontario Rue E,CA,45.554138,-73.539142
Les gourmandises de Marie-Antoinette,Bakery,4317 Ontario Rue E,CA,45.552817,-73.539828
La Mer,Fish Market,1840 Rene-Levesque Blvd E,CA,45.52172,-73.549029
Parc des Faubourgs,Park,N/A,CA,45.527172,-73.557583
Starbucks,Coffee Shop,1301 Sainte-Catherine Rue E,CA,45.519431,-73.555448
Bistro le Passe Compose,Bistro,1310 Blvd de Maisonneuve Est,CA,45.520035,-73.556485
Renard,Cocktail Bar,1272 Sainte-Catherine Rue E,CA,45.519093,-73.555341
Bar l'aigle Noir,Night Club,1315 Sainte-Catherine Rue E,CA,45.519605,-73.555309
La Fabrique Arhoma,Bakery,1700 Ontario Rue E,CA,45.525605,-73.559229
Usine C,Concert Hall,1345 Lalonde Ave,CA,45.522224,-73.560624
Rachelle-Béry,Health Food Store,1150 Ste,CA,45.518157,-73.556668
Pourquoi Pas Espresso Bar,Café,1447 Atateken Rue,CA,45.517964,-73.557776
Monopole,Wine Bar,782 Wellington Rue,CA,45.496595,-73.555405
Parc du Canal Lachine,Park,N/A,CA,45.496242,-73.553215
Restaurant Da Emma,Italian Restaurant,777 Rue de la Commune Ouest,CA,45.495674,-73.553197
Grillades du Cedres,Middle Eastern Restaurant,31 Duke Rue,CA,45.495774,-73.553878
Pharmaprix,Drugstore,1000 Wellington Rue,CA,45.493905,-73.556433
Fonderie Darling,Art Gallery,745 Ottawa Rue,CA,45.497701,-73.556892
Mano Cornuto,"Cafe, Coffee, and Tea House",988 Ottawa Rue,CA,45.495001,-73.558404
Pizzeria Moretti,Pizzeria,1059 Wellington Rue,CA,45.493485,-73.557533
La Bête à Pain,Bakery,195 Young Rue,CA,45.493236,-73.558591
La Dispensa,Café,696 William St,CA,45.498769,-73.557458
Cinéma Beaubien,Indie Movie Theater,2396 Beaubien Rue E,CA,45.54812,-73.592131
La Boulette,Burger Joint,2223 Beaubien Rue E,CA,45.54655,-73.593874
Sandwicherie Sue,Caterer,2660 Beaubien Rue E,CA,45.551189,-73.58937
Régine Café,Breakfast Spot,1840 Beaubien Rue E,CA,45.543549,-73.596103
Restaurant Roberto,Italian Restaurant,2221 Belanger Rue,CA,45.549703,-73.60086
Paquebot,Café,2110 Belanger Rue,CA,45.54873,-73.601168
MaBrasserie,Beer Bar,2300 Holt Rue,CA,45.543448,-73.584369
Aquarius Poissons Tropicaux,Pet Supplies Store,2347 Jean-Talon Rue E,CA,45.552435,-73.603422
Café Zezin,Bakery,2351 Jean-Talon Rue E,CA,45.552666,-73.603235
Rôtisseries Benny & Au Coq,Fried Chicken Joint,3397 Saint-Zotique Rue E,CA,45.5575,-73.589235
Parc Père Marquette,Park,N/A,CA,45.539175,-73.593246
Centre Père Marquette,Stadium,1600 Rue de Drucourt,CA,45.541062,-73.59544
Café Dei Campi,Café,1360 Rosemont Blvd,CA,45.537776,-73.592183
Vinvinvin,Wine Bar,1290 Beaubien Rue E,CA,45.539673,-73.599418
Bela Vista - Boulangerie & PatisseriePortugaise,Bakery,6409 Papineau Ave,CA,45.542985,-73.59589
Régine Café,Breakfast Spot,1840 Beaubien Rue E,CA,45.543549,-73.596103
Isle de Garde,Bar,1039 Beaubien Rue E,CA,45.537689,-73.60197
Veux-tu une bière,Beer Store,1451 Saint-Zotique Rue E,CA,45.543204,-73.601811
Librairie Renaud Bray Inc,Bookstore,6255 Saint-Hubert Rue,CA,45.535216,-73.600629
Broue Pub Brouhaha,Beer Bar,5860 Ave de Lorimier,CA,45.542398,-73.588455
Restaurant Candide,Restaurant,551 Saint Martin Rue,CA,45.48833,-73.568069
Grinder,Gastropub,1708 Notre-Dame Rue O,CA,45.488786,-73.567986
Perles et Paddock,Restaurant,403 des Seigneurs Rue,CA,45.487698,-73.568387
Le Boucan,BBQ Joint,1886 Notre-Dame Rue O,CA,45.487346,-73.568957
Spanel Crêpes & Gourmets,Creperie,1960 Notre Dame Rue O,CA,45.48654,-73.569512
Lord William Pub,Pub,265 des Seigneurs Rue,CA,45.486987,-73.567058
Brasseur de Montréal,Brewery,1485 Ottawa Rue,CA,45.489651,-73.564528
Cacao 70,Chocolate Store,1751 Richardson Rue,CA,45.484078,-73.562076
Le Petit Dep,Café,300 Rue de la Montagne,CA,45.492032,-73.561941
September Surf Café,Café,2471 Notre-Dame Rue O,CA,45.483247,-73.575022
Parc Baldwin,Park,2388 Marie Anne Rue E,CA,45.537675,-73.566445
Dépanneur Peluso,Convenience Store,2500 Rachel Rue E,CA,45.536887,-73.56327
Les Co'Pains d'Abord,Bakery,1965 Ave du Mont-Royal Est,CA,45.534294,-73.573461
La Distillerie No2,Cocktail Bar,2047 Ave du Mont-Royal Est,CA,45.535105,-73.572712
La Maison du Rôti,Butcher,1969 Ave du Mont-Royal Est,CA,45.534352,-73.573414
Kasa Sushi,Sushi Restaurant,2190 Ave du Mont Royal Est,CA,45.536216,-73.571148
Jean Coutu,Drugstore,1990 Mont-Royal Ave Est,CA,45.534362,-73.57293
Croissantcroissant,Bakery,2270 Ave du Mont Royal E,CA,45.5372,-73.570259
Boni-Soir,Convenience Store,2500 Rachel Rue E,CA,45.536887,-73.56327
Café des Bois,Café,2296 Ave du Mont Royal Est,CA,45.537316,-73.570165
Restaurant Bombay Mahal,South Indian Restaurant,1001 Jean-Talon Rue O,CA,45.524635,-73.625915
Indian Curry House,North Indian Restaurant,996 Jean-Talon Rue O,CA,45.524818,-73.625291
Dees Beauty Parlor,Hair Salon,1014A Jean Talon Rue O,CA,45.524416,-73.62552
Denise,Vietnamese Restaurant,386 Beaumont Ave,CA,45.528717,-73.618152
Afroditi Bakery,Bakery,756 Saint-Roch Rue,CA,45.528302,-73.629914
Café St-Henri HQ,Café,7335 Rue du Mile-End,CA,45.532364,-73.623119
Efes Patisseries,Bakery,689 Saint-Roch Rue,CA,45.52881,-73.630076
Dispatch Coffee,Café,267 Saint-Zotique Rue O,CA,45.528928,-73.616173
Dépanneur le Pick Up,Diner,7032 Waverly Rue,CA,45.531795,-73.617672
Stade IGA,Stadium,285 Faillon Rue O,CA,45.533442,-73.625965
Antidote Bouffe Végane,Coffee Shop,3459 Ontario Rue E,CA,45.543946,-73.545754
Atomic Cafe,Café,3606 Ontario Rue E,CA,45.545279,-73.544488
L'Espace Public-Brasseurs de Quartier,Bar,3632 Ontario Rue E,CA,45.545508,-73.544398
Boucherie Beau-Bien Inc,Butcher,3748 Ontario Rue E,CA,45.546717,-73.543612
La Boutique Arhoma,Bakery,15 Simon-Valois Pl,CA,45.547683,-73.543594
Restaurant la Pataterie Inc,Fast Food Restaurant,3860 Ontario Rue E,CA,45.547753,-73.542966
Heirloom,Pizzeria,3991 Ontario Rue E,CA,45.549418,-73.542097
État-Major,Restaurant,4005 Ontario Rue E,CA,45.549476,-73.54205
Boulangerie Au Pain Dore Ltee,Bakery,3075 Rue de Rouen,CA,45.540006,-73.552367
Arena Francis Bouillon,Skating Rink,3175 rue de Rouen,CA,45.542014,-73.551413
Le Bar Loic,Lounge,5001 Notre Dame Rue O,CA,45.47048,-73.591115
Elena,Pizzeria,5090 Notre-Dame Rue O,CA,45.469845,-73.591627
Club Social P.S.,Pizzeria,5090A Notre Dame Rue O,CA,45.469733,-73.591526
Terrasse St-Ambroise,Beer Bar,5080 Saint-Ambroise Rue,CA,45.467596,-73.590489
Brasserie McAuslan,Brewery,4850 Saint-Ambroise Rue,CA,45.467766,-73.590543
Tuck Shop,Arepa Restaurant,4662 Notre-Dame Rue O,CA,45.472921,-73.588387
Bar de Courcelles,Dive Bar,4685 Notre-Dame Rue O,CA,45.472969,-73.588824
Tejano BBQ Burrito,BBQ Joint,511 Rue de Courcelle,CA,45.472967,-73.588921
Arthurs Nosh Bar,Jewish Restaurant,4621 Notre-Dame Rue O,CA,45.47349,-73.588309
Cordova,Bar,4606 Notre Dame Rue O,CA,45.473443,-73.587872
La Boutique Arhoma,Bakery,15 Simon-Valois Pl,CA,45.547683,-73.543594
Boucherie Beau-Bien Inc,Butcher,3748 Ontario Rue E,CA,45.546717,-73.543612
Restaurant la Pataterie Inc,Fast Food Restaurant,3860 Ontario Rue E,CA,45.547753,-73.542966
L'Espace Public-Brasseurs de Quartier,Bar,3632 Ontario Rue E,CA,45.545508,-73.544398
Atomic Cafe,Café,3606 Ontario Rue E,CA,45.545279,-73.544488
Heirloom,Pizzeria,3991 Ontario Rue E,CA,45.549418,-73.542097
État-Major,Restaurant,4005 Ontario Rue E,CA,45.549476,-73.54205
Madame Smith,Lounge,4061 Ontario Rue E,CA,45.550052,-73.54168
Antidote Bouffe Végane,Coffee Shop,3459 Ontario Rue E,CA,45.543946,-73.545754
Mercier-Hochelaga-Maisonneuve,Library,4120 Ontario Rue E,CA,45.550641,-73.540632
Saint-Houblon,Gastropub,1567 Saint-Denis Rue,CA,45.514696,-73.562032
Vua Sandwichs,Sushi Restaurant,1579 Saint-Denis Rue,CA,45.514746,-73.562372
Cinémathèque Québécoise,Movie Theater,335 Blvd de Maisonneuve Est Montréal,CA,45.514003,-73.562591
Bibliothèque et Archives nationales du Québec,Library,475 Blvd de Maisonneuve Est,CA,45.515487,-73.562251
Maison de Thé Camellia Sinensis,Café,351 Emery Rue,CA,45.514661,-73.563774
Cineplex Cinemas,Movie Theater,350 Emery Rue,CA,45.514488,-73.563914
Archambault,Music Store,500 Sainte-Catherine Rue E,CA,45.514695,-73.559271
Patrick'S Pub Irlandais,Irish Pub,1707 Saint-Denis Rue,CA,45.515508,-73.564043
Café Lulu,Café,852 Sainte-Catherine Rue E,CA,45.515966,-73.558245
Le 4e Mur,Music Venue,2021 Saint-Denis Rue,CA,45.516216,-73.565568
Bar Zoe Karaoke et Cocktails,Night Club,3296 Jean-Talon Rue E,CA,45.559605,-73.59745
Pharmaprix,Drugstore,7355 St-Michel Blvd,CA,45.559946,-73.600225
Marché Aux Puces St-Michel,Antique Store,7707 Shelley Ave,CA,45.56269,-73.60497
Conca d'Oro,Bakery,2549 Jean-Talon Rue E,CA,45.554463,-73.6015
Poissonnerie Méditerranée,Deli,7735 Saint-Michel Blvd,CA,45.562449,-73.605641
Jean Coutu,Drugstore,2980 Belanger Rue,CA,45.55492,-73.595891
Café le Carrefour,Coffee Shop,3131 Belanger Rue,CA,45.55601,-73.595393
Restaurant Steve Anna,Grocery Store,3302 Belanger Rue,CA,45.557929,-73.593274
Marché Kim Hour Inc,Cantonese Restaurant,7734 Saint-Michel Blvd,CA,45.561716,-73.605374
Le Petit Coin Mexicain,Mexican Restaurant,2474 Jean-Talon Rue E,CA,45.553258,-73.602091
Mr. Puffs,Donut Shop,1810 Ave du MONT-ROYAL Est,CA,45.532971,-73.574242
Les Co'Pains d'Abord,Bakery,1965 Ave du Mont-Royal Est,CA,45.534294,-73.573461
La Maison du Rôti,Butcher,1969 Ave du Mont-Royal Est,CA,45.534352,-73.573414
Jean Coutu,Drugstore,1990 Mont-Royal Ave Est,CA,45.534362,-73.57293
Le Terminal,Comedy Club,1875 Ave du Mont-Royal Est,CA,45.53383,-73.573931
La Distillerie No2,Cocktail Bar,2047 Ave du Mont-Royal Est,CA,45.535105,-73.572712
Théâtre la Licorne,Music Venue,4559 Papineau Ave,CA,45.533513,-73.57552
Aux 33 Tours,Music Store,1373 Ave du Mont-Royal Est,CA,45.530643,-73.576978
Kasa Sushi,Sushi Restaurant,2190 Ave du Mont Royal Est,CA,45.536216,-73.571148
Croissantcroissant,Bakery,2270 Ave du Mont Royal E,CA,45.5372,-73.570259
Parc Sir-Wilfrid-Laurier,Park,N/A,CA,45.531911,-73.587195
Fous Desserts,Bakery,809 Laurier Ave E,CA,45.529172,-73.587785
Bibliothèque Marc-Favreau,Library,500 Rosemont Blvd,CA,45.531936,-73.597082
Patisserie Rhubarbe,Bakery,5091 rue de Lanaudière,CA,45.533409,-73.583415
Noble Café,Café,430 Laurier Ave E,CA,45.527216,-73.588982
Pizzeria No. 900,Pizzeria,1481 Laurier Ave E,CA,45.53438,-73.583204
Café Dei Campi,Café,1360 Rosemont Blvd,CA,45.537776,-73.592183
Le Saint Édouard,Bar,808 Rosemont Blvd,CA,45.533261,-73.596204
Café 8 oz,Café,57 Saint-Zotique Rue E,CA,45.533638,-73.597234
Ô deux soeurs,Café,780 Rosemont Blvd,CA,45.532635,-73.596232
Jean Coutu,Drugstore,2980 Belanger Rue,CA,45.55492,-73.595891
Café le Carrefour,Coffee Shop,3131 Belanger Rue,CA,45.55601,-73.595393
Restaurant les Deux Fours,Pizzeria,2379 Belanger Rue,CA,45.551265,-73.599505
Conca d'Oro,Bakery,2549 Jean-Talon Rue E,CA,45.554463,-73.6015
Le Petit Coin Mexicain,Mexican Restaurant,2474 Jean-Talon Rue E,CA,45.553258,-73.602091
Restaurant Steve Anna,Grocery Store,3302 Belanger Rue,CA,45.557929,-73.593274
Aquarius Poissons Tropicaux,Pet Supplies Store,2347 Jean-Talon Rue E,CA,45.552435,-73.603422
Sandwicherie Sue,Caterer,2660 Beaubien Rue E,CA,45.551189,-73.58937
Restaurant Roberto,Italian Restaurant,2221 Belanger Rue,CA,45.549703,-73.60086
Bar Zoe Karaoke et Cocktails,Night Club,3296 Jean-Talon Rue E,CA,45.559605,-73.59745
Brasserie Dieu du Ciel,Beer Bar,29 Laurier Ave O,CA,45.522693,-73.593389
VdeV,Housewares Store,5042 Saint-Laurent Blvd,CA,45.522659,-73.592274
Fairmount Bagel Bakery Inc,Bagel Shop,74 Fairmount Ave O,CA,45.522827,-73.595186
Kem CoBa,Ice Cream Parlor,60 Fairmount Ave O,CA,45.523116,-73.594954
Parc Lahaie,Park,Blvd St,CA,45.522896,-73.591797
Fabergé,Restaurant,25 Fairmount Ave O,CA,45.523512,-73.595015
Wilensky's Light Lunch,Deli,34 Fairmount Ave O,CA,45.523347,-73.594767
Boucle & Papier,Retail,5183 Saint-Laurent Blvd,CA,45.523923,-73.594398
Larry's,Restaurant,9 Fairmount Ave E,CA,45.524086,-73.594743
PA Nature,Gourmet Store,5029 Ave du Parc,CA,45.519422,-73.594979
Maxi,Grocery Store,2535 Masson Rue,CA,45.543919,-73.577986
La Crémière,Ice Cream Parlor,2618 Masson Rue,CA,45.545547,-73.576197
Parc du Pélican,Park,H1Y MONTRéAL,CA,45.544054,-73.574161
La Distillerie No 3,Cocktail Bar,2656 Masson Rue,CA,45.546007,-73.575921
IGA Famille Barcelo,Grocery Store,5290 Molson Rue,CA,45.543443,-73.576275
Les Co'Pains d'Abord,Bakery,2727 Masson Rue,CA,45.546689,-73.575943
Quai No.4,Bar,2800 Masson Rue,CA,45.547043,-73.575275
Tim Hortons,"Cafe, Coffee, and Tea House",2460 Dandurand Rue,CA,45.543802,-73.580939
Odessa l'Entrepôt,Fish Market,4900 Molson Rue,CA,45.541963,-73.570799
MaBrasserie,Beer Bar,2300 Holt Rue,CA,45.543448,-73.584369
Hoogan et Beaufort,French Restaurant,4095 Molson Rue,CA,45.542278,-73.563684
Mamie Clafoutis,Bakery,4093 Molson Rue,CA,45.542052,-73.56358
SAQ Sélection-Ateliers Angus,Grocery Store,4125 Andre-Laurendeau Rue,CA,45.543427,-73.563042
Odessa l'Entrepôt,Fish Market,4900 Molson Rue,CA,45.541963,-73.570799
Joe Fresh,Clothing Store,2925 Rachel Rue E,CA,45.544519,-73.562446
Dépanneur Peluso,Convenience Store,2500 Rachel Rue E,CA,45.536887,-73.56327
Boswell Brasserie Artisanale,Bar,2407 Ave du Mont-Royal Est,CA,45.538461,-73.569717
Boni-Soir,Convenience Store,2500 Rachel Rue E,CA,45.536887,-73.56327
Parc Baldwin,Park,2388 Marie Anne Rue E,CA,45.537675,-73.566445
Café des Bois,Café,2296 Ave du Mont Royal Est,CA,45.537316,-73.570165
Le Club Espresso Bar,Café,3801 Saint-Denis Rue,CA,45.519481,-73.572648
Les Chocolats de Chloé,Candy Store,546 Duluth Ave E,CA,45.52223,-73.574334
Au Pied de Cochon,French Restaurant,536 Duluth Ave E,CA,45.522115,-73.574428
L'Express,Bistro,3927 Saint-Denis Rue,CA,45.520186,-73.574269
Bistro Tôt ou Tard,Bistro,1030 Cherrier Rue,CA,45.521593,-73.566562
Mamie Clafoutis,Bakery,3660 Saint-Denis Rue,CA,45.518104,-73.57052
Parc la Fontaine,Park,3933 rue du Parc-Lafontaine,CA,45.526246,-73.569666
Square Saint-Louis,Urban Park,St Denis St,CA,45.516863,-73.570018
Grillade Portuguaise ma Poule Mouillée,Bakery,969 Rachel Rue E,CA,45.525165,-73.575301
Diese Onze,Jazz and Blues Venue,4115A Saint-Denis Rue,CA,45.52144,-73.576877
Cineplex Odeon Forum Cinemas,Movie Theater,2313 Sainte-Catherine Rue O,CA,45.490101,-73.584247
Imadake,Japanese Restaurant,4006 Sainte-Catherine Rue O,CA,45.488841,-73.584787
Supermarché PA,Grocery Store,1420 Rue du Fort,CA,45.492075,-73.58218
Cafe Gentile,Café,4126 Sainte-Catherine Rue O,CA,45.487039,-73.58681
Bagels on Greene,Bagel Shop,4160 Sainte-Catherine Rue O,CA,45.486288,-73.587415
Thali Cuisine Indienne,Indian Restaurant,1409 St Marc,CA,45.493123,-73.580662
Kazu,Japanese Restaurant,1862 Sainte-Catherine Rue O,CA,45.492855,-73.580123
Oink Oink,Toy Store,1343 Greene Ave,CA,45.487475,-73.590455
Vago,Italian Restaurant,1336 Greene Ave,CA,45.487244,-73.590641
Canadian Centre for Architecture,Museum,1920 Baile Rue,CA,45.491024,-73.578606
C'Cho-Colat,Lounge,1255 Bishop Rue,CA,45.496356,-73.575588
Gyu-Kaku BBQ,Japanese Restaurant,1255 Crescent Rue,CA,45.497049,-73.575029
Koa Lua,Hawaiian Restaurant,1446 Sainte-Catherine Rue O,CA,45.495936,-73.576688
Les 3 Brasseurs,Brewery,1356 Sainte-Catherine Rue O,CA,45.497212,-73.575373
McKibbin's Irish Pub,Pub,1426 Bishop Rue,CA,45.496775,-73.577344
Parma Cafe,Italian Restaurant,1202 Bishop Rue,CA,45.495796,-73.575182
Upstairs Jazz Bar & Grill,Night Club,1254 MacKay Rue,CA,45.495318,-73.576329
Apple Sainte-Catherine,Electronics Store,1321 Sainte-Catherine Rue O,CA,45.497603,-73.575724
Café Myriade,Café,1432 MacKay Rue,CA,45.495966,-73.577996
Garage Beirut,Lebanese Restaurant,1238 MacKay Rue,CA,45.495265,-73.576182
Provigo avenue des Canadiens de Montréal,Grocery Store,1275 Ave des Canadiens de Montréal,CA,45.496512,-73.570702
Bell Centre (Centre Bell),Concert Hall,1909 des Canadiens-De-Montreal Ave,CA,45.496067,-73.569315
Parma Cafe,Italian Restaurant,1202 Bishop Rue,CA,45.495796,-73.575182
Windsor Station,Monument,1160 de la Gauchetière St W,CA,45.497129,-73.568301
Gyu-Kaku BBQ,Japanese Restaurant,1255 Crescent Rue,CA,45.497049,-73.575029
Melk Bar a Café,Café,1206 Stanley Rue,CA,45.498417,-73.572022
Garage Beirut,Lebanese Restaurant,1238 MacKay Rue,CA,45.495265,-73.576182
C'Cho-Colat,Lounge,1255 Bishop Rue,CA,45.496356,-73.575588
Hurley's Irish Pub,Pub,1225 Crescent Rue,CA,45.496888,-73.574588
Upstairs Jazz Bar & Grill,Night Club,1254 MacKay Rue,CA,45.495318,-73.576329
Thali Cuisine Indienne,Indian Restaurant,1409 St Marc,CA,45.493123,-73.580662
Kazu,Japanese Restaurant,1862 Sainte-Catherine Rue O,CA,45.492855,-73.580123
Supermarché PA,Grocery Store,1420 Rue du Fort,CA,45.492075,-73.58218
Canadian Centre for Architecture,Museum,1920 Baile Rue,CA,45.491024,-73.578606
Jean Coutu,Drugstore,1675 Sainte-Catherine Rue O,CA,45.494122,-73.579293
Otto Yakitori Izakaya,Japanese Restaurant,1441 Saint Mathieu Rue,CA,45.494505,-73.580031
Bulk Barn,Food and Beverage Retail,1616 Sainte-Catherine Rue O,CA,45.494317,-73.578088
Antep Kabab,Middle Eastern Restaurant,1626 Blvd de Maisonneuve Ouest,CA,45.495369,-73.579429
Starbucks,Coffee Shop,2000 Guy Rue,CA,45.495705,-73.579634
Jugo Juice,Restaurant,1515 Sainte-Catherine Rue O,CA,45.495402,-73.577784
Tiradito,Bar,1076 Rue de Bleury,CA,45.504444,-73.563353
Toqué,French Restaurant,900 Jean-Paul-Riopelle Pl,CA,45.502899,-73.561076
Terrasse Place d'Armes,Hotel Bar,701 Cote de la Pl d'Armes 8th Floor,CA,45.505472,-73.557477
Dandy,Restaurant,244 Saint-Jacques Rue,CA,45.503173,-73.55876
Nouilles de Lan Zhou,Chinese Restaurant,1006 Saint-Laurent Blvd,CA,45.507703,-73.559485
Qing Hua Chinatown,Dumpling Restaurant,1019 St-Laurent Blvd,CA,45.508156,-73.559596
Tommy,Lounge,200 Notre-Dame Rue O,CA,45.503713,-73.557373
Notre-Dame Basilica of Montréal (Basilique Notre-Dame de Montréal),Structure,110 Notre-Dame Rue O,CA,45.504425,-73.55595
La Capital Tacos,Taco Restaurant,1096 Saint-Laurent Blvd,CA,45.508465,-73.561156
Paquebot Vieux-Mtl,Café,520 Saint-Laurent Blvd,CA,45.506234,-73.55629
Aréna Maurice-Richard,Skating Rink,2800 Viau Rue,CA,45.562219,-73.547104
Cineplex Inc,Movie Theater,4825 Pierre de Coubertin Ave,CA,45.560677,-73.547492
Planétarium Rio Tinto Alcan,Museum,4801 Pierre-De Coubertin Ave,CA,45.560558,-73.550543
Parc Olympique,Swimming Pool,4141 Pierre-De Coubertin Ave,CA,45.559971,-73.551495
Space for Life Montreal Biodome,Museum,4777 PIERRE-de COUBERTIN Ave,CA,45.559654,-73.549719
Centre Pierre Charbonneau,Recreation Center,3000 Viau Rue,CA,45.562274,-73.550016
Société des amis du Biodôme de Montréal,Museum,4777 Pierre-De-Coubertin Ave,CA,45.559705,-73.550565
Stade Saputo,Stadium,4750 Sherbrooke Rue E,CA,45.563076,-73.552514
Les Princesses,Diner,4970 Hochelaga Rue,CA,45.561583,-73.541993
Stld Autos,Used Car Dealership,5000 Hochelaga Rue,CA,45.561698,-73.5419
Melk Bar a Café,Café,1206 Stanley Rue,CA,45.498417,-73.572022
Place du Canada,Plaza,1080 Rue de la Cathédrale,CA,45.498872,-73.56918
Square Dorchester,Park,2903 Peel Rue,CA,45.499349,-73.57089
Provigo avenue des Canadiens de Montréal,Grocery Store,1275 Ave des Canadiens de Montréal,CA,45.496512,-73.570702
Mary Queen of the World Cathedral (Cathédrale Marie-Reine-du-Monde),Church,1085 Rue de la Cathedrale,CA,45.499227,-73.568513
Bell Centre (Centre Bell),Concert Hall,1909 des Canadiens-De-Montreal Ave,CA,45.496067,-73.569315
Windsor Station,Monument,1160 de la Gauchetière St W,CA,45.497129,-73.568301
Reuben's Deli,Deli,1116 Sainte-Catherine Rue O,CA,45.499704,-73.572983
Rosélys Restaurant,Restaurant,900 Rene-Levesque Blvd O,CA,45.500607,-73.567686
Roots,Clothing Store,1025 Sainte-Catherine Rue O,CA,45.500329,-73.572955
Café Parvis,Café,433 Mayor Rue,CA,45.505742,-73.569351
Café Olimpico,Café,1333 Robert-Bourassa Blvd,CA,45.503836,-73.570888
Il Focolaio Pizza Resto,Pizzeria,1223 rue du Square-Phillips,CA,45.504007,-73.568085
Sephora,Cosmetics Store,677 Sainte Catherine Rue O,CA,45.50288,-73.570422
Place des Festivals,Park,N/A,CA,45.507086,-73.567505
Nyks Bistro Pub,Bar,1250 Rue de Bleury,CA,45.506024,-73.566648
Papeterie Nota Bene,Stationery Store,3416 Ave du Parc,CA,45.50842,-73.571761
McGill University Party Network,Arts and Entertainment,845 Sherbrooke Rue O,CA,45.503987,-73.57467
Indigo,Bookstore,1500 McGill College Ave,CA,45.501946,-73.571651
Lola Rosa,Vegan and Vegetarian Restaurant,276 Sainte-Catherine Rue O,CA,45.506943,-73.566193
Café Parvis,Café,433 Mayor Rue,CA,45.505742,-73.569351
Café Olimpico,Café,1333 Robert-Bourassa Blvd,CA,45.503836,-73.570888
Il Focolaio Pizza Resto,Pizzeria,1223 rue du Square-Phillips,CA,45.504007,-73.568085
Sephora,Cosmetics Store,677 Sainte Catherine Rue O,CA,45.50288,-73.570422
Place des Festivals,Park,N/A,CA,45.507086,-73.567505
Nyks Bistro Pub,Bar,1250 Rue de Bleury,CA,45.506024,-73.566648
Papeterie Nota Bene,Stationery Store,3416 Ave du Parc,CA,45.50842,-73.571761
Lola Rosa,Vegan and Vegetarian Restaurant,276 Sainte-Catherine Rue O,CA,45.506943,-73.566193
McGill University Party Network,Arts and Entertainment,845 Sherbrooke Rue O,CA,45.503987,-73.57467
Indigo,Bookstore,1500 McGill College Ave,CA,45.501946,-73.571651
Maison de Thé Camellia Sinensis,Café,351 Emery Rue,CA,45.514661,-73.563774
Cineplex Cinemas,Movie Theater,350 Emery Rue,CA,45.514488,-73.563914
Randolph Pub Ludique,Amusement Park,2041 Saint-Denis Rue,CA,45.516495,-73.565819
Le 4e Mur,Music Venue,2021 Saint-Denis Rue,CA,45.516216,-73.565568
Patrick'S Pub Irlandais,Irish Pub,1707 Saint-Denis Rue,CA,45.515508,-73.564043
Cinémathèque Québécoise,Movie Theater,335 Blvd de Maisonneuve Est Montréal,CA,45.514003,-73.562591
Vua Sandwichs,Sushi Restaurant,1579 Saint-Denis Rue,CA,45.514746,-73.562372
Saint-Houblon,Gastropub,1567 Saint-Denis Rue,CA,45.514696,-73.562032
Eva B,Vintage and Thrift Store,2013 Saint Laurent Blvd,CA,45.511638,-73.567166
Bouillon Bilk,Restaurant,1595 Saint-Laurent Blvd,CA,45.511038,-73.565936
Poutine Centrale,Burger Joint,3971 Hochelaga Rue,CA,45.551436,-73.549141
L'Espace Public-Brasseurs de Quartier,Bar,3632 Ontario Rue E,CA,45.545508,-73.544398
La Boutique Arhoma,Bakery,15 Simon-Valois Pl,CA,45.547683,-73.543594
Atomic Cafe,Café,3606 Ontario Rue E,CA,45.545279,-73.544488
Antidote Bouffe Végane,Coffee Shop,3459 Ontario Rue E,CA,45.543946,-73.545754
Parc Napoléon-Sénécal,Park,N/A,CA,45.547581,-73.554351
Boucherie Beau-Bien Inc,Butcher,3748 Ontario Rue E,CA,45.546717,-73.543612
Fusion Express,Sushi Restaurant,3974 Pierre de Coubertin Ave,CA,45.55257,-73.552134
Maneki Comptoir Asiat',Asian Restaurant,3121 Hochelaga Rue,CA,45.542177,-73.554617
Restaurant la Pataterie Inc,Fast Food Restaurant,3860 Ontario Rue E,CA,45.547753,-73.542966
Le Petit Dep,Café,300 Rue de la Montagne,CA,45.492032,-73.561941
Brasseur de Montréal,Brewery,1485 Ottawa Rue,CA,45.489651,-73.564528
La Bête à Pain,Bakery,195 Young Rue,CA,45.493236,-73.558591
Gracie Barra Montreal - Brazilian Jiu-Jitsu,Martial Arts Dojo,3975 Notre Dame St W,CA,45.493188,-73.558153
Must Société,Furniture and Home Store,186 Peel Rue,CA,45.493411,-73.558354
Pizzeria Moretti,Pizzeria,1059 Wellington Rue,CA,45.493485,-73.557533
Microbrasserie 4 Origines,Brewery,1304 Saint Patrick Rue,CA,45.488253,-73.557852
Zibo,Restaurant,100 Peel Rue,CA,45.492931,-73.556838
Mano Cornuto,"Cafe, Coffee, and Tea House",988 Ottawa Rue,CA,45.495001,-73.558404
Pharmaprix,Drugstore,1000 Wellington Rue,CA,45.493905,-73.556433
Monument to Sir George-Étienne Cartier,Monument,N/A,CA,45.514397,-73.585128
Parc Jeanne-Mance,Park,N/A,CA,45.516572,-73.584326
Noren のれん,Japanese Restaurant,77 Rachel Rue O,CA,45.517058,-73.582791
Café Santropol,Café,3990 Saint-Urbain Rue,CA,45.515514,-73.580513
Le Filet,French Restaurant,219 Ave du Mont-Royal Ouest,CA,45.517963,-73.588537
Patati Patata Friterie de Luxe,Burger Joint,4177 Saint-Laurent Blvd,CA,45.518052,-73.581418
Le Majestique,Restaurant,4105 Saint-Laurent Blvd,CA,45.517562,-73.580385
Darling,Lounge,4328 Saint-Laurent Blvd,CA,45.518909,-73.583965
Hà,Vietnamese Restaurant,243 Ave Mont-Royal Ouest,CA,45.517788,-73.588773
Ta pies et supérette,Bakery,4520 Ave du Parc,CA,45.516965,-73.590103
Bouillon Bilk,Restaurant,1595 Saint-Laurent Blvd,CA,45.511038,-73.565936
La Maison Symphonique de Montréal,Concert Hall,1600 Saint-Urbain Rue,CA,45.509375,-73.566706
Eva B,Vintage and Thrift Store,2013 Saint Laurent Blvd,CA,45.511638,-73.567166
Cadet,Restaurant,1431 Saint-Laurent Blvd,CA,45.510388,-73.564365
Salle Wilfrid Pelletier - Place des Arts,Concert Hall,175 Sainte-Catherine Rue O,CA,45.508461,-73.566967
Studio-Theatre de la Place des Arts,Performing Arts Venue,175 Sainte-Catherine Rue O,CA,45.508022,-73.566179
Le Central,Dining and Drinking,30 Sainte-Catherine Rue O,CA,45.509663,-73.563712
Chocolats Favoris,Ice Cream Parlor,150 Sainte-Catherine Rue O,CA,45.507869,-73.56535
Café Osmo,Café,51 Sherbrooke Rue O,CA,45.511864,-73.57003
Esplanade de la Place des Arts,Plaza,260 Blvd de Maisonneuve O,CA,45.507968,-73.566032
Cordova,Bar,4606 Notre Dame Rue O,CA,45.473443,-73.587872
Tuck Shop,Arepa Restaurant,4662 Notre-Dame Rue O,CA,45.472921,-73.588387
Arthurs Nosh Bar,Jewish Restaurant,4621 Notre-Dame Rue O,CA,45.47349,-73.588309
Tejano BBQ Burrito,BBQ Joint,511 Rue de Courcelle,CA,45.472967,-73.588921
"Esplanade du Centenaire, Canal Lachine",Park,N/A,CA,45.472339,-73.58077
Le Bar Loic,Lounge,5001 Notre Dame Rue O,CA,45.47048,-73.591115
Messorem Bracitorium,Bar,2233 Pitt Rue,CA,45.46978,-73.58093
Léché Desserts,Bagel Shop,640 Rue de Courcelle,CA,45.474206,-73.592203
Elena,Pizzeria,5090 Notre-Dame Rue O,CA,45.469845,-73.591627
Terrasse St-Ambroise,Beer Bar,5080 Saint-Ambroise Rue,CA,45.467596,-73.590489
A/Maze: Montreal Escape Game,Escape Room,3550 Saint-Jacques Rue,CA,45.481336,-73.582367
Satay Brothers,Fast Food Restaurant,3721 Notre-Dame Rue O,CA,45.479359,-73.581867
Saint-Henri micro-torréfacteur,Café,3632 Notre-Dame Rue O,CA,45.479374,-73.581093
L'Avenue,Dining and Drinking,3612 Notre-Dame Rue O,CA,45.479552,-73.58076
Sumac,Fast Food Restaurant,3618 Notre-Dame Rue O,CA,45.479492,-73.580904
La Luncheonette,Bakery,4271 Saint-Jacques Rue,CA,45.476896,-73.588419
Eko Sushi,Sushi Restaurant,3502 Notre-Dame Rue O,CA,45.480201,-73.579571
Atwater Cocktail Club,Speakeasy,512 Atwater Ave,CA,45.481306,-73.5783
Green Spot,Diner,3041 Notre-Dame Rue O,CA,45.480897,-73.578819
Satay Brothers,Asian Restaurant,138 Atwater Ave,CA,45.479959,-73.577482
Indigo,Bookstore,1500 McGill College Ave,CA,45.501946,-73.571651
La Maison Simons,Clothing Store,977 Sainte-Catherine Rue O,CA,45.501138,-73.572303
Café Humble Lion,Café,904 Sherbrooke Rue O,CA,45.503303,-73.574745
Cineplex Inc,Movie Theater,977 Sainte-Catherine Rue O,CA,45.501026,-73.572202
Soubois,Restaurant,1106 Blvd de Maisonneuve Ouest,CA,45.500634,-73.574708
Sephora,Cosmetics Store,677 Sainte Catherine Rue O,CA,45.50288,-73.570422
Roots,Clothing Store,1025 Sainte-Catherine Rue O,CA,45.500329,-73.572955
Cafe Vasco Da Gama,Café,1472 Peel Rue,CA,45.500636,-73.574611
McGill University Party Network,Arts and Entertainment,845 Sherbrooke Rue O,CA,45.503987,-73.57467
Café Olimpico,Café,1333 Robert-Bourassa Blvd,CA,45.503836,-73.570888
La Maison Simons,Clothing Store,977 Sainte-Catherine Rue O,CA,45.501138,-73.572303
Indigo,Bookstore,1500 McGill College Ave,CA,45.501946,-73.571651
Cineplex Inc,Movie Theater,977 Sainte-Catherine Rue O,CA,45.501026,-73.572202
Soubois,Restaurant,1106 Blvd de Maisonneuve Ouest,CA,45.500634,-73.574708
Roots,Clothing Store,1025 Sainte-Catherine Rue O,CA,45.500329,-73.572955
Cafe Vasco Da Gama,Café,1472 Peel Rue,CA,45.500636,-73.574611
Café Humble Lion,Café,904 Sherbrooke Rue O,CA,45.503303,-73.574745
Sephora,Cosmetics Store,677 Sainte Catherine Rue O,CA,45.50288,-73.570422
Reuben's Deli,Deli,1116 Sainte-Catherine Rue O,CA,45.499704,-73.572983
McGill University Party Network,Arts and Entertainment,845 Sherbrooke Rue O,CA,45.503987,-73.57467
McKibbin's Irish Pub,Pub,3515 Saint-Laurent Blvd,CA,45.51343,-73.571243
Café Osmo,Café,51 Sherbrooke Rue O,CA,45.511864,-73.57003
Café Nocturne,Café,19 Prince-Arthur Rue O,CA,45.513737,-73.5729
Boutique 1861,Clothing Store,3670 Saint-Laurent Blvd,CA,45.514343,-73.573839
Eva B,Vintage and Thrift Store,2013 Saint Laurent Blvd,CA,45.511638,-73.567166
Benelux,Beer Bar,245 Sherbrooke Rue O,CA,45.509571,-73.571023
Bouillon Bilk,Restaurant,1595 Saint-Laurent Blvd,CA,45.511038,-73.565936
La Diperie,Ice Cream Parlor,68 des Pins Ave E,CA,45.515696,-73.574367
Square Saint-Louis,Urban Park,St Denis St,CA,45.516863,-73.570018
Papeterie Nota Bene,Stationery Store,3416 Ave du Parc,CA,45.50842,-73.571761
Café Humble Lion,Café,904 Sherbrooke Rue O,CA,45.503303,-73.574745
McGill University Party Network,Arts and Entertainment,845 Sherbrooke Rue O,CA,45.503987,-73.57467
Le Taj,Indian Restaurant,2077 Stanley Rue,CA,45.500936,-73.576655
Soubois,Restaurant,1106 Blvd de Maisonneuve Ouest,CA,45.500634,-73.574708
Cafe Vasco Da Gama,Café,1472 Peel Rue,CA,45.500636,-73.574611
La Maison Simons,Clothing Store,977 Sainte-Catherine Rue O,CA,45.501138,-73.572303
Maison Boulud,French Restaurant,1228 Sherbrooke Rue O,CA,45.499998,-73.578077
Indigo,Bookstore,1500 McGill College Ave,CA,45.501946,-73.571651
Roots,Clothing Store,1025 Sainte-Catherine Rue O,CA,45.500329,-73.572955
Cineplex Inc,Movie Theater,977 Sainte-Catherine Rue O,CA,45.501026,-73.572202
Place des Festivals,Park,N/A,CA,45.507086,-73.567505
Café Parvis,Café,433 Mayor Rue,CA,45.505742,-73.569351
Lola Rosa,Vegan and Vegetarian Restaurant,276 Sainte-Catherine Rue O,CA,45.506943,-73.566193
Salle Wilfrid Pelletier - Place des Arts,Concert Hall,175 Sainte-Catherine Rue O,CA,45.508461,-73.566967
Nyks Bistro Pub,Bar,1250 Rue de Bleury,CA,45.506024,-73.566648
Studio-Theatre de la Place des Arts,Performing Arts Venue,175 Sainte-Catherine Rue O,CA,45.508022,-73.566179
Esplanade de la Place des Arts,Plaza,260 Blvd de Maisonneuve O,CA,45.507968,-73.566032
La Cage,Sports Bar,150 St Catherine Rue W,CA,45.507661,-73.564375
Papeterie Nota Bene,Stationery Store,3416 Ave du Parc,CA,45.50842,-73.571761
La Maison Symphonique de Montréal,Concert Hall,1600 Saint-Urbain Rue,CA,45.509375,-73.566706
Joe's Panini,Fast Food Restaurant,1404 Drummond Rue,CA,45.498702,-73.574743
Bar George,Hotel Bar,1440 Drummond Rue,CA,45.499081,-73.575675
Apple Sainte-Catherine,Electronics Store,1321 Sainte-Catherine Rue O,CA,45.497603,-73.575724
Deville Dinerbar,Diner,1425 Stanley Rue,CA,45.499792,-73.574245
Reuben's Deli,Deli,1116 Sainte-Catherine Rue O,CA,45.499704,-73.572983
Melk Bar a Café,Café,1206 Stanley Rue,CA,45.498417,-73.572022
Gyu-Kaku BBQ,Japanese Restaurant,1255 Crescent Rue,CA,45.497049,-73.575029
Les 3 Brasseurs,Brewery,1356 Sainte-Catherine Rue O,CA,45.497212,-73.575373
Roots,Clothing Store,1025 Sainte-Catherine Rue O,CA,45.500329,-73.572955
Hurley's Irish Pub,Pub,1225 Crescent Rue,CA,45.496888,-73.574588
Le Petit Dep,Café,300 Rue de la Montagne,CA,45.492032,-73.561941
Brasseur de Montréal,Brewery,1485 Ottawa Rue,CA,45.489651,-73.564528
La Bête à Pain,Bakery,195 Young Rue,CA,45.493236,-73.558591
Gracie Barra Montreal - Brazilian Jiu-Jitsu,Martial Arts Dojo,3975 Notre Dame St W,CA,45.493188,-73.558153
Bell Centre (Centre Bell),Concert Hall,1909 des Canadiens-De-Montreal Ave,CA,45.496067,-73.569315
Grinder,Gastropub,1708 Notre-Dame Rue O,CA,45.488786,-73.567986
Must Société,Furniture and Home Store,186 Peel Rue,CA,45.493411,-73.558354
Mano Cornuto,"Cafe, Coffee, and Tea House",988 Ottawa Rue,CA,45.495001,-73.558404
Windsor Station,Monument,1160 de la Gauchetière St W,CA,45.497129,-73.568301
Restaurant Candide,Restaurant,551 Saint Martin Rue,CA,45.48833,-73.568069
Studio-Theatre de la Place des Arts,Performing Arts Venue,175 Sainte-Catherine Rue O,CA,45.508022,-73.566179
Place des Festivals,Park,N/A,CA,45.507086,-73.567505
Salle Wilfrid Pelletier - Place des Arts,Concert Hall,175 Sainte-Catherine Rue O,CA,45.508461,-73.566967
Monument-National,Music Venue,1182 Saint-Laurent Blvd,CA,45.509065,-73.562386
La Maison Symphonique de Montréal,Concert Hall,1600 Saint-Urbain Rue,CA,45.509375,-73.566706
Café Parvis,Café,433 Mayor Rue,CA,45.505742,-73.569351
Il Focolaio Pizza Resto,Pizzeria,1223 rue du Square-Phillips,CA,45.504007,-73.568085
Cadet,Restaurant,1431 Saint-Laurent Blvd,CA,45.510388,-73.564365
Bouillon Bilk,Restaurant,1595 Saint-Laurent Blvd,CA,45.511038,-73.565936
Terrasse Place d'Armes,Hotel Bar,701 Cote de la Pl d'Armes 8th Floor,CA,45.505472,-73.557477
Indigo,Bookstore,1500 McGill College Ave,CA,45.501946,-73.571651
Cineplex Inc,Movie Theater,977 Sainte-Catherine Rue O,CA,45.501026,-73.572202
La Maison Simons,Clothing Store,977 Sainte-Catherine Rue O,CA,45.501138,-73.572303
Nacarat,Cocktail Bar,900 René-Lévesque O,CA,45.500712,-73.568076
Mary Queen of the World Cathedral (Cathédrale Marie-Reine-du-Monde),Church,1085 Rue de la Cathedrale,CA,45.499227,-73.568513
Square Dorchester,Park,2903 Peel Rue,CA,45.499349,-73.57089
Sephora,Cosmetics Store,677 Sainte Catherine Rue O,CA,45.50288,-73.570422
Roots,Clothing Store,1025 Sainte-Catherine Rue O,CA,45.500329,-73.572955
Rosélys Restaurant,Restaurant,900 Rene-Levesque Blvd O,CA,45.500607,-73.567686
Marché Artisans,Restaurant,900 Rene-Levesque Blvd O,CA,45.500312,-73.568209
Terrasse St-Ambroise,Beer Bar,5080 Saint-Ambroise Rue,CA,45.467596,-73.590489
Elena,Pizzeria,5090 Notre-Dame Rue O,CA,45.469845,-73.591627
Brasserie McAuslan,Brewery,4850 Saint-Ambroise Rue,CA,45.467766,-73.590543
Club Social P.S.,Pizzeria,5090A Notre Dame Rue O,CA,45.469733,-73.591526
Centre Sportif Gadbois,Swimming Pool,N/A,CA,45.46673,-73.596703
Le Bar Loic,Lounge,5001 Notre Dame Rue O,CA,45.47048,-73.591115
McKiernan Luncheonette,Restaurant,5524 Saint Patrick Rue,CA,45.463803,-73.595447
Woonerf Saint-Pierre,Park,N/A,CA,45.468337,-73.593126
Tuck Shop,Arepa Restaurant,4662 Notre-Dame Rue O,CA,45.472921,-73.588387
Tejano BBQ Burrito,BBQ Joint,511 Rue de Courcelle,CA,45.472967,-73.588921
Bibliothèque Marc-Favreau,Library,500 Rosemont Blvd,CA,45.531936,-73.597082
Café 8 oz,Café,57 Saint-Zotique Rue E,CA,45.533638,-73.597234
Marche Station 54,Grocery Store,760 Rosemont Blvd,CA,45.532392,-73.597
Ô deux soeurs,Café,780 Rosemont Blvd,CA,45.532635,-73.596232
Restaurant Casa Alentejo,Latin American Restaurant,5938 Saint-Hubert Rue,CA,45.533787,-73.598257
Le Saint Édouard,Bar,808 Rosemont Blvd,CA,45.533261,-73.596204
La Bêtise,Tapas Restaurant,6015 Saint-Hubert Rue,CA,45.534672,-73.599449
Pastel Rita,Café,5761 Saint-Laurent Blvd,CA,45.527242,-73.601532
L'Armoire à Glaces,Café,6220 Saint-Hubert Rue,CA,45.534712,-73.600274
Le Butterblume,Café,5836 Saint-Laurent Blvd,CA,45.527497,-73.602946
A&W Restaurant,American Restaurant,8400 Christophe-Colomb Ave,CA,45.549908,-73.629373
Patate Rouge,Fast Food Restaurant,755 Cremazie Blvd E,CA,45.548912,-73.636272
SAQ Sélection-Papineau - Crémazie,Grocery Store,8405 Papineau Ave,CA,45.556054,-73.623565
IGA Supermarché Déziel Inc,Grocery Store,1155 Jarry Rue E,CA,45.548865,-73.624878
Tim Hortons,"Cafe, Coffee, and Tea House",790 Cremazie Blvd E,CA,45.54861,-73.63442
Baristello & Co,Café,709B Jarry Rue E,CA,45.54563,-73.627388
L'Oeufrier,Breakfast Spot,1501 Cremazie Blvd E,CA,45.553399,-73.625513
Auvents de Venise,Repair Service,8442 Alderic-Beaulac Pl,CA,45.555521,-73.627329
Café Vienne,Café,1611 Cremazie Blvd E,CA,45.554567,-73.624001
Marche Meli Melo,Grocery Store,640 Jarry Rue E,CA,45.54466,-73.627598
Parc Père Marquette,Park,N/A,CA,45.539175,-73.593246
Café Dei Campi,Café,1360 Rosemont Blvd,CA,45.537776,-73.592183
Broue Pub Brouhaha,Beer Bar,5860 Ave de Lorimier,CA,45.542398,-73.588455
L'Entre-Pots,Café,1995 Masson Rue,CA,45.538881,-73.582623
Pizzeria No. 900,Pizzeria,1481 Laurier Ave E,CA,45.53438,-73.583204
MaBrasserie,Beer Bar,2300 Holt Rue,CA,45.543448,-73.584369
Patisserie Rhubarbe,Bakery,5091 rue de Lanaudière,CA,45.533409,-73.583415
Centre Père Marquette,Stadium,1600 Rue de Drucourt,CA,45.541062,-73.59544
Parc Sir-Wilfrid-Laurier,Park,N/A,CA,45.531911,-73.587195
Bela Vista - Boulangerie & PatisseriePortugaise,Bakery,6409 Papineau Ave,CA,45.542985,-73.59589
Dépanneur Peluso,Convenience Store,2500 Rachel Rue E,CA,45.536887,-73.56327
Boni-Soir,Convenience Store,2500 Rachel Rue E,CA,45.536887,-73.56327
Patisserie Polonaise Wawel,Bakery,2543A Ontario Rue E,CA,45.532948,-73.55292
Sandwiches Cao Lanh,Fast Food Restaurant,2651 Ontario Rue E,CA,45.534333,-73.551898
Échappe-toi Montréal,Escape Room,2244 Lariviere Rue,CA,45.530525,-73.557544
Restaurant Kiên-Giang Exp,Fast Food Restaurant,2669 Ontario Rue E,CA,45.534391,-73.551851
Parc Baldwin,Park,2388 Marie Anne Rue E,CA,45.537675,-73.566445
Boulangerie Au Pain Dore Ltee,Bakery,3075 Rue de Rouen,CA,45.540006,-73.552367
Espace Libre,Music Venue,1945 Fullum Rue,CA,45.530303,-73.554484
Subway,Deli,2544 Ontario Rue E,CA,45.532785,-73.552576
Le Moineau Masqué,Café,912 Marie-Anne Rue E,CA,45.525508,-73.577976
Valet d'Coeur Jeux,Toy Store,4408 Saint-Denis Rue,CA,45.523218,-73.581633
Café Myriade - le Plateau,Coffee Shop,4627 Saint-Denis Rue,CA,45.52481,-73.584349
Renaud-Bray,Bookstore,4380 Saint-Denis Rue,CA,45.523001,-73.581142
Le Toledo,Bakery,351 Ave du Mont-Royal E,CA,45.523577,-73.583534
Au Kouign-Amann,Bakery,322 Ave du Mont-Royal Est,CA,45.523125,-73.583423
St-Viateur Bagel & Cafe,Bagel Shop,1127 Ave du Mont-Royal Est,CA,45.528384,-73.579086
Le Parloir,Tea Room,4354 Christophe Colomb Ave,CA,45.526887,-73.577245
Trip de Bouffe,Bakery,277 Ave du Mont-Royal Est,CA,45.522768,-73.584187
Ô Breton,Creperie,1201 Ave Mont-Royal E,CA,45.529021,-73.578477
Vinvinvin,Wine Bar,1290 Beaubien Rue E,CA,45.539673,-73.599418
Bela Vista - Boulangerie & PatisseriePortugaise,Bakery,6409 Papineau Ave,CA,45.542985,-73.59589
Centre Père Marquette,Stadium,1600 Rue de Drucourt,CA,45.541062,-73.59544
Régine Café,Breakfast Spot,1840 Beaubien Rue E,CA,45.543549,-73.596103
Veux-tu une bière,Beer Store,1451 Saint-Zotique Rue E,CA,45.543204,-73.601811
Luciano Trattoria,Italian Restaurant,1212 Saint-Zotique Rue E,CA,45.540263,-73.603896
Isle de Garde,Bar,1039 Beaubien Rue E,CA,45.537689,-73.60197
Parc Père Marquette,Park,N/A,CA,45.539175,-73.593246
Café Dei Campi,Café,1360 Rosemont Blvd,CA,45.537776,-73.592183
Soucoupe café,Café,6910 Fabre Rue,CA,45.544852,-73.60458
La Cordée Plein-Air,Bicycle Store,2159 Sainte-Catherine Rue E,CA,45.525796,-73.549739
Espace Libre,Music Venue,1945 Fullum Rue,CA,45.530303,-73.554484
Patisserie Polonaise Wawel,Bakery,2543A Ontario Rue E,CA,45.532948,-73.55292
Tim Hortons,"Cafe, Coffee, and Tea House",2155 Blvd de Maisonneuve Est,CA,45.525871,-73.551679
Parc des Faubourgs,Park,N/A,CA,45.527172,-73.557583
SAQ,Liquor Store,905 Ave de Lorimier,CA,45.523867,-73.54682
La Mer,Fish Market,1840 Rene-Levesque Blvd E,CA,45.52172,-73.549029
Échappe-toi Montréal,Escape Room,2244 Lariviere Rue,CA,45.530525,-73.557544
Metro Plus,Grocery Store,1955 Sainte-Catherine Rue E,CA,45.524058,-73.551428
Bar le Stud,Gay Bar,1812 Sainte-Catherine Rue E,CA,45.522626,-73.552013
Vire-Vent,Ice Cream Parlor,1517 Fleury Rue E,CA,45.562924,-73.656527
Mamie Clafoutis,Bakery,1602 Fleury Rue E,CA,45.564085,-73.655403
Cafe Aroma Paninoteca,Café,1520 Fleury Rue E,CA,45.562761,-73.656182
L'Estaminet,Restaurant,1340 Fleury Rue E,CA,45.560114,-73.657741
Restaurant la Citronelle,Vietnamese Restaurant,1386 Fleury Rue E,CA,45.560803,-73.657377
Sweet Isabelle,Coffee Shop,1652A Fleury Rue E,CA,45.56489,-73.654945
Rona,Hardware Store,1540 Sauve Rue E,CA,45.56108,-73.649627
RONA Major & Major Inc,Construction Supplies Store,1540 Sauve Rue E,CA,45.561074,-73.649918
Cafe le Petit Flore Inc,Bistro,1145 Fleury Rue E,CA,45.558666,-73.659001
Librairie Renaud-Bray,Bookstore,1691 Fleury Rue E,CA,45.565917,-73.654786
Restaurant Georgina,Burger Joint,9245 Lajeunesse Rue,CA,45.549075,-73.647477
Auberge du Dragon Rouge,Restaurant,8870 Lajeunesse Rue,CA,45.547214,-73.641354
Ciot,Construction Supplies Store,9151 Saint-Laurent Blvd,CA,45.543933,-73.648758
Parc Henri-Julien,Landmarks and Outdoors,9300 Saint-Denis Rue,CA,45.5482,-73.648562
Marché Tradition,Grocery Store,9150 Lajeunesse Rue,CA,45.548641,-73.646492
Starbucks,Coffee Shop,190 Cremazie Blvd E,CA,45.542976,-73.640194
Vêtements Unique Inc,Clothing Store,9455 Saint-Laurent Blvd,CA,45.545205,-73.653163
Paylan Yetvart Pharmaciens,Drugstore,8967 Lajeunesse Rue,CA,45.547663,-73.64166
Café Latin,Coffee Shop,9275 Lajeunesse Rue,CA,45.549522,-73.647879
Martini Pizzeria,Pizzeria,9481 Lajeunesse Rue,CA,45.550367,-73.650914
Fromagerie Marche Maisonneuve,Cheese Store,4445 Ontario Rue E,CA,45.554138,-73.539142
Avant-Garde Artisans Brasseurs,Brewery,5500 Hochelaga Rue,CA,45.566701,-73.539001
Bagatelle Bistro,Bistro,4323 Ontario Rue E,CA,45.552875,-73.539781
Les gourmandises de Marie-Antoinette,Bakery,4317 Ontario Rue E,CA,45.552817,-73.539828
Le Bièrologue - le Vinologue,Beer Store,4301 Ontario Rue E,CA,45.552759,-73.539874
Hoche Café,Café,4299 Ontario Rue E,CA,45.55247,-73.540108
L'Olive Noire,Middle Eastern Restaurant,4271 Ontario Rue E,CA,45.552183,-73.540244
Hélicoptère,Gastropub,4255 Ontario Rue E,CA,45.552068,-73.540338
Cineplex Inc,Movie Theater,4825 Pierre de Coubertin Ave,CA,45.560677,-73.547492
Aréna Maurice-Richard,Skating Rink,2800 Viau Rue,CA,45.562219,-73.547104
Deli Italien Bello,Deli,3636 d'Youville Pl,CA,45.50078,-73.556312
Nhâu Bar,Cocktail Bar,600 William Rue,CA,45.499589,-73.556225
Olive & Gourmando,Bakery,351 Saint-Paul Rue O,CA,45.501173,-73.556566
La Dispensa,Café,696 William St,CA,45.498769,-73.557458
Gibby's,French Restaurant,298 d'Youville Pl,CA,45.50149351419009,-73.5550043
Jellyfish Crudo+Charbon,Seafood Restaurant,626 Marguerite d'Youville Rue,CA,45.498887,-73.554412
Flyjin,Night Club,417 Saint-Pierre Rue,CA,45.501625,-73.556677
Fonderie Darling,Art Gallery,745 Ottawa Rue,CA,45.497701,-73.556892
Mandy's,Salad Restaurant,425 Saint Nicolas Rue,CA,45.50232,-73.556021
Five Guys Burgers & Fries,Burger Joint,468 McGill Rue,CA,45.50061,-73.559115
Marven's Restaurant,Greek Restaurant,880 Ball Ave,CA,45.52811,-73.633687
Afroditi Bakery,Bakery,756 Saint-Roch Rue,CA,45.528302,-73.629914
Efes Patisseries,Bakery,689 Saint-Roch Rue,CA,45.52881,-73.630076
Malhi Sweets Indian Cuisine,Indian Restaurant,880 Jarry Rue O,CA,45.529009,-73.636867
Restaurant Elatos Souvlaki,Pizzeria,550 Jarry Rue O,CA,45.531598,-73.635354
Pharmacie Gaby Jeanty,Drugstore,665 Jarry Rue O,CA,45.531072,-73.636063
Parc St-Roch,Playground,N/A,CA,45.531906,-73.631487
Loukouman,Coffee Shop,522 Jarry Rue O,CA,45.531718,-73.635067
Parc Jarry,Park,285 Faillon Rue O,CA,45.535206,-73.628544
Bar Café Loutraki,Beer Bar,950 Jarry Rue O,CA,45.528491,-73.637188
IGA Supermarché Déziel Inc,Grocery Store,1155 Jarry Rue E,CA,45.548865,-73.624878
Subway,Deli,1280 Jarry Rue E,CA,45.549499,-73.621699
Baristello & Co,Café,709B Jarry Rue E,CA,45.54563,-73.627388
Le Toasteur Villeray,Restaurant,767 Villeray Rue,CA,45.544167,-73.621232
Café Perko,Café,753 Villeray Rue,CA,45.543934,-73.621515
Restaurant Banh Mi Saigon SENC,Diner,696 Jarry Rue E,CA,45.545353,-73.62704
Marche Meli Melo,Grocery Store,640 Jarry Rue E,CA,45.54466,-73.627598
Restaurant Tandem,French Restaurant,586 Villeray Rue,CA,45.542389,-73.621997
Tim Hortons,"Cafe, Coffee, and Tea House",8115 Papineau Ave,CA,45.553589,-73.619071
Restaurant Da Lillo,Pizzeria,615 Jarry Rue E,CA,45.544592,-73.628129
Paquebot Vieux-Mtl,Café,520 Saint-Laurent Blvd,CA,45.506234,-73.55629
Café Olimpico,Café,419 Saint-Vincent Rue,CA,45.507261,-73.553272
Cold Room,Speakeasy,155 Saint-Paul Rue E,CA,45.507097,-73.552928
Place Jacques Cartier,Plaza,N/A,CA,45.507998,-73.553343
Place Vauquelin,Museum,N/A,CA,45.508602,-73.55438
The Keg Steakhouse + Bar,Restaurant,25 Saint Paul St E,CA,45.50606,-73.55367
Vieux-Port Steakhouse,Pizzeria,39 Saint-Paul Rue E,CA,45.506175,-73.553577
Creperie Chez Suzette,French Restaurant,3 Saint-Paul Rue E,CA,45.505771,-73.553903
Modavie,Wine Bar,1 Saint-Paul Rue O,CA,45.505484,-73.554039
Ming Tao Xuan,Tea Room,451 Saint-Sulpice Rue,CA,45.504824,-73.55581
Bibliothèque et Archives nationales du Québec,Library,475 Blvd de Maisonneuve Est,CA,45.515487,-73.562251
Café Lulu,Café,852 Sainte-Catherine Rue E,CA,45.515966,-73.558245
Archambault,Music Store,500 Sainte-Catherine Rue E,CA,45.514695,-73.559271
Vua Sandwichs,Sushi Restaurant,1579 Saint-Denis Rue,CA,45.514746,-73.562372
Saint-Houblon,Gastropub,1567 Saint-Denis Rue,CA,45.514696,-73.562032
La graine brûlée,Café,921 Sainte-Catherine Rue E,CA,45.516769,-73.557883
Pourquoi Pas Espresso Bar,Café,1447 Atateken Rue,CA,45.517964,-73.557776
Maison de Thé Camellia Sinensis,Café,351 Emery Rue,CA,45.514661,-73.563774
Cinémathèque Québécoise,Movie Theater,335 Blvd de Maisonneuve Est Montréal,CA,45.514003,-73.562591
O'Thym,French Restaurant,1112 Blvd de Maisonneuve Est,CA,45.518359,-73.557934
Five Guys Burgers & Fries,Burger Joint,468 McGill Rue,CA,45.50061,-73.559115
Toqué,French Restaurant,900 Jean-Paul-Riopelle Pl,CA,45.502899,-73.561076
Dandy,Restaurant,244 Saint-Jacques Rue,CA,45.503173,-73.55876
Olive & Gourmando,Bakery,351 Saint-Paul Rue O,CA,45.501173,-73.556566
Flyjin,Night Club,417 Saint-Pierre Rue,CA,45.501625,-73.556677
Mandy's,Salad Restaurant,425 Saint Nicolas Rue,CA,45.50232,-73.556021
La Dispensa,Café,696 William St,CA,45.498769,-73.557458
Deli Italien Bello,Deli,3636 d'Youville Pl,CA,45.50078,-73.556312
Tommy,Lounge,200 Notre-Dame Rue O,CA,45.503713,-73.557373
Tiradito,Bar,1076 Rue de Bleury,CA,45.504444,-73.563353
La Dispensa,Café,696 William St,CA,45.498769,-73.557458
Fonderie Darling,Art Gallery,745 Ottawa Rue,CA,45.497701,-73.556892
Five Guys Burgers & Fries,Burger Joint,468 McGill Rue,CA,45.50061,-73.559115
Mano Cornuto,"Cafe, Coffee, and Tea House",988 Ottawa Rue,CA,45.495001,-73.558404
Nhâu Bar,Cocktail Bar,600 William Rue,CA,45.499589,-73.556225
Monopole,Wine Bar,782 Wellington Rue,CA,45.496595,-73.555405
Deli Italien Bello,Deli,3636 d'Youville Pl,CA,45.50078,-73.556312
Olive & Gourmando,Bakery,351 Saint-Paul Rue O,CA,45.501173,-73.556566
Flyjin,Night Club,417 Saint-Pierre Rue,CA,45.501625,-73.556677
Toqué,French Restaurant,900 Jean-Paul-Riopelle Pl,CA,45.502899,-73.561076
Toqué,French Restaurant,900 Jean-Paul-Riopelle Pl,CA,45.502899,-73.561076
Dandy,Restaurant,244 Saint-Jacques Rue,CA,45.503173,-73.55876
Tiradito,Bar,1076 Rue de Bleury,CA,45.504444,-73.563353
Tommy,Lounge,200 Notre-Dame Rue O,CA,45.503713,-73.557373
Five Guys Burgers & Fries,Burger Joint,468 McGill Rue,CA,45.50061,-73.559115
Mandy's,Salad Restaurant,425 Saint Nicolas Rue,CA,45.50232,-73.556021
Terrasse Place d'Armes,Hotel Bar,701 Cote de la Pl d'Armes 8th Floor,CA,45.505472,-73.557477
Flyjin,Night Club,417 Saint-Pierre Rue,CA,45.501625,-73.556677
Notre-Dame Basilica of Montréal (Basilique Notre-Dame de Montréal),Structure,110 Notre-Dame Rue O,CA,45.504425,-73.55595
Olive & Gourmando,Bakery,351 Saint-Paul Rue O,CA,45.501173,-73.556566
Patate Rouge,Fast Food Restaurant,755 Cremazie Blvd E,CA,45.548912,-73.636272
Auberge du Dragon Rouge,Restaurant,8870 Lajeunesse Rue,CA,45.547214,-73.641354
Le Taz,Sports and Recreation,8931 Papineau Ave,CA,45.560985,-73.635124
Restaurant Georgina,Burger Joint,9245 Lajeunesse Rue,CA,45.549075,-73.647477
A&W Restaurant,American Restaurant,8400 Christophe-Colomb Ave,CA,45.549908,-73.629373
Moteurs et Piscinemoteurs et Piscines Sainte Roses Sainte Rose,Swimming Pool,321A Cure Labelle Blvd,CA,45.55222,-73.62751
Auvents de Venise,Repair Service,8442 Alderic-Beaulac Pl,CA,45.555521,-73.627329
Le Toasteur Villeray,Restaurant,767 Villeray Rue,CA,45.544167,-73.621232
Café Perko,Café,753 Villeray Rue,CA,45.543934,-73.621515
Patro le Prevost,Recreation Center,7355 Christophe-Colomb Ave,CA,45.54408,-73.614443
Bibliothèque le Prévost,Library,7355 Christophe-Colomb Ave,CA,45.544018,-73.614683
Restaurant Tandem,French Restaurant,586 Villeray Rue,CA,45.542389,-73.621997
Subway,Deli,1280 Jarry Rue E,CA,45.549499,-73.621699
Mr. Azteca,Mexican Restaurant,7349 Saint-Hubert Rue,CA,45.541954,-73.615584
IGA Supermarché Déziel Inc,Grocery Store,1155 Jarry Rue E,CA,45.548865,-73.624878
La Belle Bleue,BBQ Joint,1865 Jean-Talon Rue E,CA,45.548501,-73.606783
Théâtre Aux Écuries,Movie Theater,7285 Chabot Rue,CA,45.550127,-73.607855
Square Dorchester,Park,2903 Peel Rue,CA,45.499349,-73.57089
Reuben's Deli,Deli,1116 Sainte-Catherine Rue O,CA,45.499704,-73.572983
Roots,Clothing Store,1025 Sainte-Catherine Rue O,CA,45.500329,-73.572955
Melk Bar a Café,Café,1206 Stanley Rue,CA,45.498417,-73.572022
Cineplex Inc,Movie Theater,977 Sainte-Catherine Rue O,CA,45.501026,-73.572202
Mary Queen of the World Cathedral (Cathédrale Marie-Reine-du-Monde),Church,1085 Rue de la Cathedrale,CA,45.499227,-73.568513
La Maison Simons,Clothing Store,977 Sainte-Catherine Rue O,CA,45.501138,-73.572303
Deville Dinerbar,Diner,1425 Stanley Rue,CA,45.499792,-73.574245
Indigo,Bookstore,1500 McGill College Ave,CA,45.501946,-73.571651
Cafe Vasco Da Gama,Café,1472 Peel Rue,CA,45.500636,-73.574611
Restaurant Casa Vinho,Portuguese Restaurant,3750 Masson Rue,CA,45.555496,-73.570456
Maesmi,Café,3353 Masson Rue,CA,45.55175,-73.573002
Parc Lafond,Park,3536 Laurier Ave E,CA,45.552052,-73.563704
La Succursale,Lounge,3188 Masson Rue,CA,45.55015,-73.573436
Cafe Lezard,Café,3119 Masson Rue,CA,45.549566,-73.574193
Piri Piri Masson,Fast Food Restaurant,3038 Masson Rue,CA,45.549002,-73.573981
Restaurant Chez La Mère,Bistro,4028 Rue Masson,CA,45.558488,-73.568612
Les Co'Pains d'Abord,Bakery,2727 Masson Rue,CA,45.546689,-73.575943
Quai No.4,Bar,2800 Masson Rue,CA,45.547043,-73.575275
SmartPixel.tv,Electronics Store,5649 14e Ave,CA,45.554702,-73.575957
Pub BreWskey,Pub,380 Saint Paul Rue E,CA,45.509457,-73.551404
Café de' Mercanti - Old Montreal,Café,350 Notre-Dame Rue E,CA,45.509659,-73.552669
Grande Roue de Montréal,Amusement Park,N/A,CA,45.508711,-73.548959
Patinoire des Quais,Skating Rink,N/A,CA,45.5084,-73.547496
Le Club Chasse et Pêche,French Restaurant,423 Saint-Claude Rue,CA,45.50887,-73.552354
Quebec Fine Crafts Boutique (Boutique Métiers d'Arts),Retail,20 Saint-Paul Rue O,CA,45.505205,-73.553788
Place Jacques Cartier,Plaza,N/A,CA,45.507998,-73.553343
Place Vauquelin,Museum,N/A,CA,45.508602,-73.55438
Café Olimpico,Café,419 Saint-Vincent Rue,CA,45.507261,-73.553272
Cold Room,Speakeasy,155 Saint-Paul Rue E,CA,45.507097,-73.552928
Pub Wolf & Workman,Restaurant,139 Saint-Paul Rue O,CA,45.503875,-73.554957
Méchant Bœuf Bar & Brasserie,Bar,124 Saint-Paul Rue O,CA,45.503941,-73.554523
Philemon Bar,Night Club,111 Saint-Paul Rue O,CA,45.504162,-73.55482
Modavie,Wine Bar,1 Saint-Paul Rue O,CA,45.505484,-73.554039
Ming Tao Xuan,Tea Room,451 Saint-Sulpice Rue,CA,45.504824,-73.55581
"Pointe-à-Callière, Montreal Museum of Archaeology and History (Pointe-à-Callière Montreal Museum of Archaeology and History)",Museum,350 Royale Pl,CA,45.502697,-73.55415
Creperie Chez Suzette,French Restaurant,3 Saint-Paul Rue E,CA,45.505771,-73.553903
The Keg Steakhouse + Bar,Restaurant,25 Saint Paul St E,CA,45.50606,-73.55367
Le Petit Dep,Café,179 Saint-Paul Rue O,CA,45.503073,-73.555319
Notre-Dame Basilica of Montréal (Basilique Notre-Dame de Montréal),Structure,110 Notre-Dame Rue O,CA,45.504425,-73.55595
Parc Etienne-Desmarteau,Park,N/A,CA,45.560565,-73.578279
Beaubien Deli,Restaurant,4023 Beaubien Rue E,CA,45.562001,-73.580362
Restaurant Casa Vinho,Portuguese Restaurant,3750 Masson Rue,CA,45.555496,-73.570456
Subway,Deli,3975 Beaubien Rue E,CA,45.561764,-73.580839
Subway,Deli,3246 Rosemont Blvd,CA,45.552963,-73.58041
Maesmi,Café,3353 Masson Rue,CA,45.55175,-73.573002
La Boîte à Vins,Deli,3641A Dandurand Rue,CA,45.555301,-73.574425
Ecole St-Francois-Solano,Primary and Secondary School,3580 Dandurand Rue,CA,45.555022,-73.574174
Restaurant Chez La Mère,Bistro,4028 Rue Masson,CA,45.558488,-73.568612
Tessier Breton Desjardins Dentistes,Dentist,4055 Beaubien Rue E,CA,45.562405,-73.580035
Le Boucan,BBQ Joint,1886 Notre-Dame Rue O,CA,45.487346,-73.568957
Grinder,Gastropub,1708 Notre-Dame Rue O,CA,45.488786,-73.567986
Restaurant Candide,Restaurant,551 Saint Martin Rue,CA,45.48833,-73.568069
Perles et Paddock,Restaurant,403 des Seigneurs Rue,CA,45.487698,-73.568387
Spanel Crêpes & Gourmets,Creperie,1960 Notre Dame Rue O,CA,45.48654,-73.569512
Lord William Pub,Pub,265 des Seigneurs Rue,CA,45.486987,-73.567058
Brasseur de Montréal,Brewery,1485 Ottawa Rue,CA,45.489651,-73.564528
Canadian Centre for Architecture,Museum,1920 Baile Rue,CA,45.491024,-73.578606
September Surf Café,Café,2471 Notre-Dame Rue O,CA,45.483247,-73.575022
Joe Beef,Gastropub,2491 Notre Dame Rue O,CA,45.483072,-73.575259
Brasseur de Montréal,Brewery,1485 Ottawa Rue,CA,45.489651,-73.564528
Perles et Paddock,Restaurant,403 des Seigneurs Rue,CA,45.487698,-73.568387
Lord William Pub,Pub,265 des Seigneurs Rue,CA,45.486987,-73.567058
Restaurant Candide,Restaurant,551 Saint Martin Rue,CA,45.48833,-73.568069
Grinder,Gastropub,1708 Notre-Dame Rue O,CA,45.488786,-73.567986
Le Boucan,BBQ Joint,1886 Notre-Dame Rue O,CA,45.487346,-73.568957
Cacao 70,Chocolate Store,1751 Richardson Rue,CA,45.484078,-73.562076
Spanel Crêpes & Gourmets,Creperie,1960 Notre Dame Rue O,CA,45.48654,-73.569512
Le Petit Dep,Café,300 Rue de la Montagne,CA,45.492032,-73.561941
Microbrasserie 4 Origines,Brewery,1304 Saint Patrick Rue,CA,45.488253,-73.557852
Place Vauquelin,Museum,N/A,CA,45.508602,-73.55438
La Maison Smith,Dessert Shop,23 Notre-Dame Rue,CA,45.510694,-73.5605
Café de' Mercanti - Old Montreal,Café,350 Notre-Dame Rue E,CA,45.509659,-73.552669
Nouilles de Lan Zhou,Chinese Restaurant,1006 Saint-Laurent Blvd,CA,45.507703,-73.559485
Qing Hua Chinatown,Dumpling Restaurant,1019 St-Laurent Blvd,CA,45.508156,-73.559596
Le Club Chasse et Pêche,French Restaurant,423 Saint-Claude Rue,CA,45.50887,-73.552354
Place Jacques Cartier,Plaza,N/A,CA,45.507998,-73.553343
La Capital Tacos,Taco Restaurant,1096 Saint-Laurent Blvd,CA,45.508465,-73.561156
Pub BreWskey,Pub,380 Saint Paul Rue E,CA,45.509457,-73.551404
Paquebot Vieux-Mtl,Café,520 Saint-Laurent Blvd,CA,45.506234,-73.55629
Quebec Fine Crafts Boutique (Boutique Métiers d'Arts),Retail,20 Saint-Paul Rue O,CA,45.505205,-73.553788
Cold Room,Speakeasy,155 Saint-Paul Rue E,CA,45.507097,-73.552928
Place Jacques Cartier,Plaza,N/A,CA,45.507998,-73.553343
Café Olimpico,Café,419 Saint-Vincent Rue,CA,45.507261,-73.553272
Le Club Chasse et Pêche,French Restaurant,423 Saint-Claude Rue,CA,45.50887,-73.552354
Pub BreWskey,Pub,380 Saint Paul Rue E,CA,45.509457,-73.551404
Vieux-Port Steakhouse,Pizzeria,39 Saint-Paul Rue E,CA,45.506175,-73.553577
The Keg Steakhouse + Bar,Restaurant,25 Saint Paul St E,CA,45.50606,-73.55367
Place Vauquelin,Museum,N/A,CA,45.508602,-73.55438
Grande Roue de Montréal,Amusement Park,N/A,CA,45.508711,-73.548959
Bell Centre (Centre Bell),Concert Hall,1909 des Canadiens-De-Montreal Ave,CA,45.496067,-73.569315
Windsor Station,Monument,1160 de la Gauchetière St W,CA,45.497129,-73.568301
Provigo avenue des Canadiens de Montréal,Grocery Store,1275 Ave des Canadiens de Montréal,CA,45.496512,-73.570702
Place du Canada,Plaza,1080 Rue de la Cathédrale,CA,45.498872,-73.56918
Melk Bar a Café,Café,1206 Stanley Rue,CA,45.498417,-73.572022
Mary Queen of the World Cathedral (Cathédrale Marie-Reine-du-Monde),Church,1085 Rue de la Cathedrale,CA,45.499227,-73.568513
Square Dorchester,Park,2903 Peel Rue,CA,45.499349,-73.57089
Parma Cafe,Italian Restaurant,1202 Bishop Rue,CA,45.495796,-73.575182
Rosélys Restaurant,Restaurant,900 Rene-Levesque Blvd O,CA,45.500607,-73.567686
Gyu-Kaku BBQ,Japanese Restaurant,1255 Crescent Rue,CA,45.497049,-73.575029
Grinder,Gastropub,1708 Notre-Dame Rue O,CA,45.488786,-73.567986
Restaurant Candide,Restaurant,551 Saint Martin Rue,CA,45.48833,-73.568069
Le Boucan,BBQ Joint,1886 Notre-Dame Rue O,CA,45.487346,-73.568957
Perles et Paddock,Restaurant,403 des Seigneurs Rue,CA,45.487698,-73.568387
Brasseur de Montréal,Brewery,1485 Ottawa Rue,CA,45.489651,-73.564528
Bell Centre (Centre Bell),Concert Hall,1909 des Canadiens-De-Montreal Ave,CA,45.496067,-73.569315
Spanel Crêpes & Gourmets,Creperie,1960 Notre Dame Rue O,CA,45.48654,-73.569512
Chez Sophie,Fish and Chips Shop,1974 Notre-Dame Rue O,CA,45.486424,-73.569605
Starbucks,Coffee Shop,1265 des Canadiens-De-Montreal Ave,CA,45.496632,-73.570416
Provigo avenue des Canadiens de Montréal,Grocery Store,1275 Ave des Canadiens de Montréal,CA,45.496512,-73.570702
Canadian Centre for Architecture,Museum,1920 Baile Rue,CA,45.491024,-73.578606
Thali Cuisine Indienne,Indian Restaurant,1409 St Marc,CA,45.493123,-73.580662
Spanel Crêpes & Gourmets,Creperie,1960 Notre Dame Rue O,CA,45.48654,-73.569512
Imadake,Japanese Restaurant,4006 Sainte-Catherine Rue O,CA,45.488841,-73.584787
September Surf Café,Café,2471 Notre-Dame Rue O,CA,45.483247,-73.575022
Joe Beef,Gastropub,2491 Notre Dame Rue O,CA,45.483072,-73.575259
Le Vin Papillon,Wine Bar,2519 Notre-Dame Rue O,CA,45.482892,-73.575689
Théâtre Corona,Music Venue,2490 Notre-Dame Rue O,CA,45.482908,-73.574915
Burgundy Lion,Bar,2496 Notre-Dame Rue O,CA,45.482675,-73.575198
Upstairs Jazz Bar & Grill,Night Club,1254 MacKay Rue,CA,45.495318,-73.576329
Valet d'Coeur Jeux,Toy Store,4408 Saint-Denis Rue,CA,45.523218,-73.581633
Renaud-Bray,Bookstore,4380 Saint-Denis Rue,CA,45.523001,-73.581142
Le Toledo,Bakery,351 Ave du Mont-Royal E,CA,45.523577,-73.583534
Au Kouign-Amann,Bakery,322 Ave du Mont-Royal Est,CA,45.523125,-73.583423
Café Myriade - le Plateau,Coffee Shop,4627 Saint-Denis Rue,CA,45.52481,-73.584349
Trip de Bouffe,Bakery,277 Ave du Mont-Royal Est,CA,45.522768,-73.584187
Le Moineau Masqué,Café,912 Marie-Anne Rue E,CA,45.525508,-73.577976
Zone,Housewares Store,4246 Saint-Denis Rue,CA,45.522022,-73.578979
Boulangerie les Co'Pains d'Abord,Bakery,418 Rachel Rue E,CA,45.521932,-73.577813
Yokato Yokabai,Deli,4185 Drolet Rue,CA,45.521237,-73.578469
Pastel Rita,Café,5761 Saint-Laurent Blvd,CA,45.527242,-73.601532
Pizzeria Magpie,Pizzeria,16 Maguire Rue,CA,45.524638,-73.595536
Café Olimpico,Café,124 Saint-Viateur Rue O,CA,45.52403,-73.600216
Éclair,Café,12 Maguire Rue,CA,45.524526,-73.595435
Le Butterblume,Café,5836 Saint-Laurent Blvd,CA,45.527497,-73.602946
Larry's,Restaurant,9 Fairmount Ave E,CA,45.524086,-73.594743
Kem CoBa,Ice Cream Parlor,60 Fairmount Ave O,CA,45.523116,-73.594954
Boucle & Papier,Retail,5183 Saint-Laurent Blvd,CA,45.523923,-73.594398
Fabergé,Restaurant,25 Fairmount Ave O,CA,45.523512,-73.595015
Fairmount Bagel Bakery Inc,Bagel Shop,74 Fairmount Ave O,CA,45.522827,-73.595186
Mano Cornuto,"Cafe, Coffee, and Tea House",988 Ottawa Rue,CA,45.495001,-73.558404
Le Petit Dep,Café,300 Rue de la Montagne,CA,45.492032,-73.561941
La Bête à Pain,Bakery,195 Young Rue,CA,45.493236,-73.558591
Gracie Barra Montreal - Brazilian Jiu-Jitsu,Martial Arts Dojo,3975 Notre Dame St W,CA,45.493188,-73.558153
Windsor Station,Monument,1160 de la Gauchetière St W,CA,45.497129,-73.568301
Must Société,Furniture and Home Store,186 Peel Rue,CA,45.493411,-73.558354
Bell Centre (Centre Bell),Concert Hall,1909 des Canadiens-De-Montreal Ave,CA,45.496067,-73.569315
Fonderie Darling,Art Gallery,745 Ottawa Rue,CA,45.497701,-73.556892
Pizzeria Moretti,Pizzeria,1059 Wellington Rue,CA,45.493485,-73.557533
Pharmaprix,Drugstore,1000 Wellington Rue,CA,45.493905,-73.556433
Satay Brothers,Asian Restaurant,138 Atwater Ave,CA,45.479959,-73.577482
Atwater Cocktail Club,Speakeasy,512 Atwater Ave,CA,45.481306,-73.5783
SAQ Sélection-Marché Atwater,Liquor Store,155 Atwater Ave,CA,45.480373,-73.576673
Atwater Market,Farmers Market,138 Atwater Ave,CA,45.479821,-73.57747
Green Spot,Diner,3041 Notre-Dame Rue O,CA,45.480897,-73.578819
Eko Sushi,Sushi Restaurant,3502 Notre-Dame Rue O,CA,45.480201,-73.579571
Première Moisson,Bakery,3025 Saint-Ambroise Rue,CA,45.479133,-73.576246
Saint-Henri micro-torréfacteur,Café,3632 Notre-Dame Rue O,CA,45.479374,-73.581093
L'Avenue,Dining and Drinking,3612 Notre-Dame Rue O,CA,45.479552,-73.58076
Sumac,Fast Food Restaurant,3618 Notre-Dame Rue O,CA,45.479492,-73.580904
Spanel Crêpes & Gourmets,Creperie,1960 Notre Dame Rue O,CA,45.48654,-73.569512
September Surf Café,Café,2471 Notre-Dame Rue O,CA,45.483247,-73.575022
Joe Beef,Gastropub,2491 Notre Dame Rue O,CA,45.483072,-73.575259
Théâtre Corona,Music Venue,2490 Notre-Dame Rue O,CA,45.482908,-73.574915
Burgundy Lion,Bar,2496 Notre-Dame Rue O,CA,45.482675,-73.575198
Le Vin Papillon,Wine Bar,2519 Notre-Dame Rue O,CA,45.482892,-73.575689
Atwater Cocktail Club,Speakeasy,512 Atwater Ave,CA,45.481306,-73.5783
Cacao 70,Chocolate Store,1751 Richardson Rue,CA,45.484078,-73.562076
Atwater Market,Farmers Market,138 Atwater Ave,CA,45.479821,-73.57747
Canal de Lachine (Canal-de-Lachine),Canal,361 Bridge St,CA,45.478826,-73.57459
Parc du Canal Lachine,Park,N/A,CA,45.496242,-73.553215
Monopole,Wine Bar,782 Wellington Rue,CA,45.496595,-73.555405
Restaurant Da Emma,Italian Restaurant,777 Rue de la Commune Ouest,CA,45.495674,-73.553197
Le Marché des Éclusiers,Food Court,400 Rue de la Commune Ouest,CA,45.498534,-73.552222
Jellyfish Crudo+Charbon,Seafood Restaurant,626 Marguerite d'Youville Rue,CA,45.498887,-73.554412
Bistro-Brasserie les Soeurs Grises,Bar,32 McGill Rue,CA,45.498953,-73.553978
Fonderie Darling,Art Gallery,745 Ottawa Rue,CA,45.497701,-73.556892
La Dispensa,Café,696 William St,CA,45.498769,-73.557458
Grillades du Cedres,Middle Eastern Restaurant,31 Duke Rue,CA,45.495774,-73.553878
Nhâu Bar,Cocktail Bar,600 William Rue,CA,45.499589,-73.556225
Zibo,Restaurant,100 Peel Rue,CA,45.492931,-73.556838
Pharmaprix,Drugstore,1000 Wellington Rue,CA,45.493905,-73.556433
Pizzeria Moretti,Pizzeria,1059 Wellington Rue,CA,45.493485,-73.557533
La Bête à Pain,Bakery,195 Young Rue,CA,45.493236,-73.558591
Gracie Barra Montreal - Brazilian Jiu-Jitsu,Martial Arts Dojo,3975 Notre Dame St W,CA,45.493188,-73.558153
Must Société,Furniture and Home Store,186 Peel Rue,CA,45.493411,-73.558354
Mano Cornuto,"Cafe, Coffee, and Tea House",988 Ottawa Rue,CA,45.495001,-73.558404
Subway,Deli,1055 Wellington St,CA,45.493829,-73.557351
Industria Brasserie Italienne,Pizzeria,100 Peel Rue,CA,45.492985,-73.556985
Monopole,Wine Bar,782 Wellington Rue,CA,45.496595,-73.555405
Fonderie Darling,Art Gallery,745 Ottawa Rue,CA,45.497701,-73.556892
Mano Cornuto,"Cafe, Coffee, and Tea House",988 Ottawa Rue,CA,45.495001,-73.558404
La Dispensa,Café,696 William St,CA,45.498769,-73.557458
Monopole,Wine Bar,782 Wellington Rue,CA,45.496595,-73.555405
Nhâu Bar,Cocktail Bar,600 William Rue,CA,45.499589,-73.556225
Five Guys Burgers & Fries,Burger Joint,468 McGill Rue,CA,45.50061,-73.559115
Pharmaprix,Drugstore,1000 Wellington Rue,CA,45.493905,-73.556433
Must Société,Furniture and Home Store,186 Peel Rue,CA,45.493411,-73.558354
Gracie Barra Montreal - Brazilian Jiu-Jitsu,Martial Arts Dojo,3975 Notre Dame St W,CA,45.493188,-73.558153
La Bête à Pain,Bakery,195 Young Rue,CA,45.493236,-73.558591
Brasseur de Montréal,Brewery,1485 Ottawa Rue,CA,45.489651,-73.564528
Le Petit Dep,Café,300 Rue de la Montagne,CA,45.492032,-73.561941
Grinder,Gastropub,1708 Notre-Dame Rue O,CA,45.488786,-73.567986
Restaurant Candide,Restaurant,551 Saint Martin Rue,CA,45.48833,-73.568069
Perles et Paddock,Restaurant,403 des Seigneurs Rue,CA,45.487698,-73.568387
Le Boucan,BBQ Joint,1886 Notre-Dame Rue O,CA,45.487346,-73.568957
Lord William Pub,Pub,265 des Seigneurs Rue,CA,45.486987,-73.567058
Microbrasserie 4 Origines,Brewery,1304 Saint Patrick Rue,CA,45.488253,-73.557852
Spanel Crêpes & Gourmets,Creperie,1960 Notre Dame Rue O,CA,45.48654,-73.569512
La Bête à Pain,Bakery,195 Young Rue,CA,45.493236,-73.558591
La Diperie,Ice Cream Parlor,68 des Pins Ave E,CA,45.515696,-73.574367
Boutique 1861,Clothing Store,3670 Saint-Laurent Blvd,CA,45.514343,-73.573839
La Vieille Europe,Cheese Store,3855 Saint-Laurent Blvd,CA,45.515989,-73.576702
Restaurant Jano,Fish and Chips Shop,3883 Saint-Laurent Blvd,CA,45.516203,-73.577387
Schwartz's Montreal Hebrew Delicatessen (Schwartz's Charcuterie Hébraïque de Montréal),Deli,3901A Saint-Laurent Blvd,CA,45.516314,-73.577487
Café Nocturne,Café,19 Prince-Arthur Rue O,CA,45.513737,-73.5729
Dispatch Coffee,Café,4021 Saint-Laurent Blvd,CA,45.517077,-73.579062
McKibbin's Irish Pub,Pub,3515 Saint-Laurent Blvd,CA,45.51343,-73.571243
Réservoir,Bar,9 Duluth Ave E,CA,45.517243,-73.579309
Bar Suzanne,Cocktail Bar,20 Duluth Ave E,CA,45.517251,-73.578922
Parc à chiens du Parc la Fontaine,Dog Park,N/A,CA,45.52746,-73.565829
Parc la Fontaine,Park,3933 rue du Parc-Lafontaine,CA,45.526246,-73.569666
La Fabrique Arhoma,Bakery,1700 Ontario Rue E,CA,45.525605,-73.559229
Grenade - Resto-bar et terrasse,Asian Restaurant,1603 Ontario Rue E,CA,45.52496,-73.560226
Au Petit Extra,Bistro,1690 Ontario Rue E,CA,45.525485,-73.559516
Le Lion d'Or,Arts and Entertainment,1676 Ontario Rue E,CA,45.525372,-73.559512
Pharmaprix,Drugstore,1580 Ontario St E,CA,45.524567,-73.559971
Parc des Faubourgs,Park,N/A,CA,45.527172,-73.557583
Usine C,Concert Hall,1345 Lalonde Ave,CA,45.522224,-73.560624
Échappe-toi Montréal,Escape Room,2244 Lariviere Rue,CA,45.530525,-73.557544
Imadake,Japanese Restaurant,4006 Sainte-Catherine Rue O,CA,45.488841,-73.584787
Cineplex Odeon Forum Cinemas,Movie Theater,2313 Sainte-Catherine Rue O,CA,45.490101,-73.584247
Supermarché PA,Grocery Store,1420 Rue du Fort,CA,45.492075,-73.58218
Cafe Gentile,Café,4126 Sainte-Catherine Rue O,CA,45.487039,-73.58681
Bagels on Greene,Bagel Shop,4160 Sainte-Catherine Rue O,CA,45.486288,-73.587415
Canadian Centre for Architecture,Museum,1920 Baile Rue,CA,45.491024,-73.578606
Thali Cuisine Indienne,Indian Restaurant,1409 St Marc,CA,45.493123,-73.580662
Kazu,Japanese Restaurant,1862 Sainte-Catherine Rue O,CA,45.492855,-73.580123
Jean Coutu,Drugstore,1675 Sainte-Catherine Rue O,CA,45.494122,-73.579293
Restaurant Kashima,Chinese Restaurant,1232 Greene Ave,CA,45.486376,-73.588677
Monument-National,Music Venue,1182 Saint-Laurent Blvd,CA,45.509065,-73.562386
Chocolats Favoris,Ice Cream Parlor,150 Sainte-Catherine Rue O,CA,45.507869,-73.56535
La Capital Tacos,Taco Restaurant,1096 Saint-Laurent Blvd,CA,45.508465,-73.561156
La Cage,Sports Bar,150 St Catherine Rue W,CA,45.507661,-73.564375
Studio-Theatre de la Place des Arts,Performing Arts Venue,175 Sainte-Catherine Rue O,CA,45.508022,-73.566179
Esplanade de la Place des Arts,Plaza,260 Blvd de Maisonneuve O,CA,45.507968,-73.566032
Le Central,Dining and Drinking,30 Sainte-Catherine Rue O,CA,45.509663,-73.563712
Lola Rosa,Vegan and Vegetarian Restaurant,276 Sainte-Catherine Rue O,CA,45.506943,-73.566193
Cadet,Restaurant,1431 Saint-Laurent Blvd,CA,45.510388,-73.564365
Qing Hua Chinatown,Dumpling Restaurant,1019 St-Laurent Blvd,CA,45.508156,-73.559596
Café Myriade,Café,1432 MacKay Rue,CA,45.495966,-73.577996
Koa Lua,Hawaiian Restaurant,1446 Sainte-Catherine Rue O,CA,45.495936,-73.576688
Antep Kabab,Middle Eastern Restaurant,1626 Blvd de Maisonneuve Ouest,CA,45.495369,-73.579429
Notre-Boeuf-de-Grâce,Burger Joint,1388 Blvd de Maisonneuve O,CA,45.497506,-73.577707
Jugo Juice,Restaurant,1515 Sainte-Catherine Rue O,CA,45.495402,-73.577784
Matcha Zanmai,Ice Cream Parlor,1428 MacKay Rue,CA,45.495861,-73.577605
McKibbin's Irish Pub,Pub,1426 Bishop Rue,CA,45.496775,-73.577344
Starbucks,Coffee Shop,2000 Guy Rue,CA,45.495705,-73.579634
Mandy's,Salad Restaurant,2067 Crescent Rue,CA,45.498412,-73.577833
Ristorante Beatrice,Italian Restaurant,1504 Sherbrooke Rue O,CA,45.496986,-73.580886
St-Viateur Bagel & Cafe,Bagel Shop,1127 Ave du Mont-Royal Est,CA,45.528384,-73.579086
Aux 33 Tours,Music Store,1373 Ave du Mont-Royal Est,CA,45.530643,-73.576978
Le Moineau Masqué,Café,912 Marie-Anne Rue E,CA,45.525508,-73.577976
Grillade Portuguaise ma Poule Mouillée,Bakery,969 Rachel Rue E,CA,45.525165,-73.575301
Café Myriade - le Plateau,Coffee Shop,4627 Saint-Denis Rue,CA,45.52481,-73.584349
Renaud-Bray,Bookstore,4380 Saint-Denis Rue,CA,45.523001,-73.581142
Parc la Fontaine,Park,3933 rue du Parc-Lafontaine,CA,45.526246,-73.569666
Parc Sir-Wilfrid-Laurier,Park,N/A,CA,45.531911,-73.587195
Le Toledo,Bakery,351 Ave du Mont-Royal E,CA,45.523577,-73.583534
Au Kouign-Amann,Bakery,322 Ave du Mont-Royal Est,CA,45.523125,-73.583423
Il Focolaio Pizza Resto,Pizzeria,1223 rue du Square-Phillips,CA,45.504007,-73.568085
Café Olimpico,Café,1333 Robert-Bourassa Blvd,CA,45.503836,-73.570888
Sephora,Cosmetics Store,677 Sainte Catherine Rue O,CA,45.50288,-73.570422
Café Parvis,Café,433 Mayor Rue,CA,45.505742,-73.569351
Indigo,Bookstore,1500 McGill College Ave,CA,45.501946,-73.571651
Nacarat,Cocktail Bar,900 René-Lévesque O,CA,45.500712,-73.568076
La Maison Simons,Clothing Store,977 Sainte-Catherine Rue O,CA,45.501138,-73.572303
Nyks Bistro Pub,Bar,1250 Rue de Bleury,CA,45.506024,-73.566648
Cineplex Inc,Movie Theater,977 Sainte-Catherine Rue O,CA,45.501026,-73.572202
Place des Festivals,Park,N/A,CA,45.507086,-73.567505
